FOLDERYEAR;LicenceRSN;LicenceNumber;LicenceRevisionNumber;BusinessName;BusinessTradeName;Status;IssuedDate;ExpiredDate;BusinessType;BusinessSubType;Unit;UnitType;House;Street;City;Province;Country;PostalCode;LocalArea;NumberofEmployees;FeePaid;ExtractDate;Geom;geo_point_2d
25;4648358;25-140635;00;Runran (Helen) Wang (RUNRAN WANG);H.R.W. International Consulting;Issued;2024-12-01T00:18:42-08:00;2025-12-31;Consulting and Management Services;;;;;;Vancouver;BC;;;Mount Pleasant;3.0;265.0;2025-03-02T00:09:35-08:00;;
25;4648375;25-140652;00;CYINTL CONSULTING CORP;;Issued;2024-12-31T18:42:57-08:00;2025-12-31;Consulting and Management Services;;;;;;Vancouver;BC;;;Downtown;1.0;265.0;2025-03-02T00:09:35-08:00;;
25;4648381;25-140658;00;OSI CONSULTING CANADA LTD.;OSI Digital Inc.;Issued;2024-12-26T22:48:53-08:00;2025-12-31;Consulting and Management Services;;1500;Unit;701;W GEORGIA STREET;Vancouver;BC;;V7Y 1C6;Downtown;1.0;265.0;2025-03-02T00:09:35-08:00;;
25;4648388;25-140665;00;Bayshore Consulting Inc;;Issued;2024-12-02T11:34:43-08:00;2025-12-31;Consulting and Management Services;;;;;;Vancouver;BC;CA;;;2.0;265.0;2025-03-02T00:09:35-08:00;;
25;4648404;25-140681;00;(Charlene Boucher);Flower Power Garden Design;Issued;2024-12-26T10:59:06-08:00;2025-12-31;Consulting and Management Services;;;;;;Vancouver;BC;CA;;Grandview-Woodland;0.0;265.0;2025-03-02T00:09:35-08:00;;
25;4648409;25-140686;00;CIRCULAR ECONOMY TECH INC.;;Issued;2024-12-09T13:29:32-08:00;2025-12-31;Consulting and Management Services;;;;;;Vancouver;BC;;;West End;1.0;265.0;2025-03-02T00:09:35-08:00;;
25;4648441;25-140718;00;DSC STUDIO CORP.;DSC Art Studio;Issued;2024-12-18T18:57:37-08:00;2025-12-31;Consulting and Management Services;;2nd;Floor;119;W BROADWAY;Vancouver;BC;;V5Y 1P4;Mount Pleasant;2.0;265.0;2025-03-02T00:09:35-08:00;"{""coordinates"": [-123.10736218172, 49.2632728517888], ""type"": ""Point""}";49.2632728517888, -123.10736218172
25;4648473;25-140750;00;1444396 B.C. LTD.;;Issued;2024-12-07T11:58:52-08:00;2025-12-31;Consulting and Management Services;;;;;;Vancouver;BC;;;Renfrew-Collingwood;1.0;265.0;2025-03-02T00:09:35-08:00;;
25;4648529;25-140806;00;HR EDUCATIONAL CONSULTANCY LTD.;;Issued;2024-12-02T12:05:51-08:00;2025-12-31;Consulting and Management Services;;;;;;Vancouver;BC;;;Sunset;0.0;265.0;2025-03-02T00:09:35-08:00;;
25;4648556;25-140833;00;YOUMECLE CONSULTING INC.;YOUMECLE CONSULTING INC.;Issued;2024-12-20T13:42:17-08:00;2025-12-31;Consulting and Management Services;;;;;;Vancouver;BC;CA;;;2.0;265.0;2025-03-02T00:09:35-08:00;;
25;4648576;25-140853;00;(Isobel McLean);IGM Design Consultants;Issued;2024-12-03T17:17:43-08:00;2025-12-31;Consulting and Management Services;;;;;;Vancouver;BC;;;Kitsilano;1.0;265.0;2025-03-02T00:09:35-08:00;;
25;4648585;25-140862;00;(Irwin Oostindie);;Issued;2024-12-20T08:01:24-08:00;2025-12-31;Consulting and Management Services;;212;Unit;475;MAIN STREET;Vancouver;BC;;V6A 2T7;Downtown;7.0;265.0;2025-03-02T00:09:35-08:00;;
25;4648586;25-140863;00;SWIFTWATER CONSULTING LTD.;;Issued;2024-12-06T07:38:00-08:00;2025-12-31;Consulting and Management Services;;1760;Unit;750;W PENDER STREET;Vancouver;BC;;V6C 2T8;Downtown;7.0;265.0;2025-03-02T00:09:35-08:00;;
25;4648587;25-140864;00;WARTSILA CANADA INCORPORATED;;Issued;2024-12-10T09:55:55-08:00;2025-12-31;Consulting and Management Services;;500;Unit;353;Water Street;Vancouver;BC;;V6B 1B8;Downtown;28.0;265.0;2025-03-02T00:09:35-08:00;;
25;4648600;25-140877;00;1480376 B.C. LTD.;;Issued;2024-12-12T14:50:57-08:00;2025-12-31;Consulting and Management Services;;230;Unit;1090;W GEORGIA STREET;Vancouver;BC;;V6E 3V7;West End;2.0;265.0;2025-03-02T00:09:35-08:00;;
25;4648614;25-140891;00;VIVIEN LEE IMMIGRATION & BUSINESS CORPORATION;;Issued;2024-12-10T15:29:42-08:00;2025-12-31;Consulting and Management Services;;720;Unit;999;W BROADWAY;Vancouver;BC;;V5Z 1K5;Fairview;3.0;265.0;2025-03-02T00:09:35-08:00;"{""coordinates"": [-123.126104236733, 49.2638663729166], ""type"": ""Point""}";49.2638663729166, -123.126104236733
25;4648636;25-140913;00;(Tamara Wong);Hair Loss Pride;Issued;2024-12-26T12:11:36-08:00;2025-12-31;Consulting and Management Services;;;;;;Vancouver;BC;;;Kensington-Cedar Cottage;1.0;265.0;2025-03-02T00:09:35-08:00;;
25;4648643;25-140920;00;PortoVan Immigration Inc.;;Issued;2024-12-30T00:24:33-08:00;2025-12-31;Consulting and Management Services;;400;Unit;601;W BROADWAY;Vancouver;BC;;V5Z 4C2;Fairview;1.0;265.0;2025-03-02T00:09:35-08:00;"{""coordinates"": [-123.118596122757, 49.2635657969344], ""type"": ""Point""}";49.2635657969344, -123.118596122757
25;4648650;25-140927;00;PROFITPAD CONSULTING INC.;;Issued;2024-12-06T14:01:22-08:00;2025-12-31;Consulting and Management Services;;;;;;Vancouver;BC;;;Mount Pleasant;1.0;265.0;2025-03-02T00:09:35-08:00;;
25;4648670;25-140947;00;ImmiGoal Immigration Services Inc;;Issued;2024-12-30T10:33:34-08:00;2025-12-31;Consulting and Management Services;;200;Unit;717;W PENDER ST;Vancouver;BC;CA;V6C 1G9;Downtown;4.0;265.0;2025-03-02T00:09:35-08:00;"{""coordinates"": [-123.114979424767, 49.2849906153494], ""type"": ""Point""}";49.2849906153494, -123.114979424767
25;4646737;25-139014;00;Dubas Engineering Inc;;Issued;2024-12-17T09:45:49-08:00;2025-12-31;Consulting and Management Services;;;;;;Burnaby;BC;CA;;;4.0;265.0;2025-03-02T00:09:33-08:00;;
25;4646992;25-139269;00;Illume Consulting Corp;;Issued;2024-12-13T07:38:35-08:00;2025-12-31;Consulting and Management Services;;;;;;West Vancouver;BC;CA;;Out of Town;1.0;265.0;2025-03-02T00:09:33-08:00;;
25;4647022;25-139299;00;Kwela Leadership and Talent Management Inc;;Issued;2024-12-05T08:31:11-08:00;2025-12-31;Consulting and Management Services;;;;;;West Vancouver;BC;CA;;;7.0;265.0;2025-03-02T00:09:33-08:00;;
25;4647048;25-139325;00;Aerotek ULC;Aerotek;Issued;2024-12-12T07:10:30-08:00;2025-12-31;Consulting and Management Services;;;;;;Burnaby;BC;CA;;;27.0;265.0;2025-03-02T00:09:33-08:00;;
25;4647137;25-139414;00;Three Rivers Consulting Ltd;;Issued;2024-12-12T09:51:25-08:00;2025-12-31;Consulting and Management Services;;;;;;Port Coquitlam;BC;CA;;;4.0;265.0;2025-03-02T00:09:33-08:00;;
25;4647393;25-139670;00;Woodridge Tree Consulting Arborists Ltd;;Issued;2024-12-16T11:19:38-08:00;2025-12-31;Consulting and Management Services;;;;;;Surrey;BC;CA;;;7.0;265.0;2025-03-02T00:09:33-08:00;;
25;4647523;25-139800;00;Christina E Nikiforuk (Christina Nikiforuk);Liberate Leadership Coaching & Consulting;Issued;2024-12-10T13:46:14-08:00;2025-12-31;Consulting and Management Services;;;;;;Surrey;BC;CA;;Out of Town;1.0;265.0;2025-03-02T00:09:33-08:00;;
25;4647530;25-139807;00;(Bill Boons);Bill Boons Consulting Services;Issued;2024-12-30T10:26:33-08:00;2025-12-31;Consulting and Management Services;;;;;;Coquitlam;BC;CA;;;1.0;265.0;2025-03-02T00:09:33-08:00;;
25;4647572;25-139849;00;Green Spark Ventures Ltd;Green Spark Group;Issued;2024-12-27T10:54:40-08:00;2025-12-31;Consulting and Management Services;;;;;;Port Coquitlam;BC;CA;;;3.0;265.0;2025-03-02T00:09:33-08:00;;
25;4647756;25-140033;00;(Islai Rathlin);Islai Rathlin Counselling and Community Care;Issued;2024-12-04T10:02:15-08:00;2025-12-31;Consulting and Management Services;;;;;;Whitehorse;YT;CA;;Out of Town;1.0;265.0;2025-03-02T00:09:33-08:00;;
25;4648142;25-140419;00;(Janet Mohapi-Banks);Janet Mohapi-Banks Conscious Consulting;Issued;2024-12-19T10:50:57-08:00;2025-12-31;Consulting and Management Services;;;;;;North Vancouver;BC;CA;;Out of Town;1.0;265.0;2025-03-02T00:09:33-08:00;;
25;4648225;25-140502;00;Elbrus Immigration Inc;;Issued;2024-12-16T09:32:16-08:00;2025-12-31;Consulting and Management Services;;;;;;Coquitlam;BC;;;Out of Town;2.0;265.0;2025-03-02T00:09:33-08:00;;
25;4648399;25-140676;00;Calian Ltd.;;Issued;2024-12-24T08:00:02-08:00;2025-12-31;Consulting and Management Services;;;;;;Ottawa;ON;CA;;Out of Town;0.0;265.0;2025-03-02T00:09:33-08:00;;
25;4648619;25-140896;00;BMAC TECHNOLOGIES AND CONSULTING INC.;;Issued;2024-12-09T12:53:53-08:00;2025-12-31;Consulting and Management Services;;;;;;Burnaby;BC;;;Out of Town;0.0;265.0;2025-03-02T00:09:33-08:00;;
25;4686669;25-165478;00;Banks Architecture & Permitting Inc;;Issued;2024-12-19T14:01:11-08:00;2025-12-31;Consulting and Management Services;;;;;;Surrey;BC;CA;;Out of Town;2.0;265.0;2025-03-02T00:09:33-08:00;;
25;4646684;25-138961;00;CSA Building Sciences Western Ltd;;Issued;2024-12-03T10:31:03-08:00;2025-12-31;Consulting and Management Services;;;;;;Coquitlam;BC;CA;;Out of Town;9.0;265.0;2025-03-02T00:09:33-08:00;;
25;4646798;25-139075;00;Citiwest Consulting Ltd;;Issued;2024-12-12T15:00:36-08:00;2025-12-31;Consulting and Management Services;;;;;;Surrey;BC;CA;;;27.0;265.0;2025-03-02T00:09:33-08:00;;
25;4646902;25-139179;00;Alice-Home Facilitators Ltd;;Issued;2024-12-31T14:51:30-08:00;2025-12-31;Consulting and Management Services;;;;;;Coquitlam;BC;CA;;Out of Town;1.0;265.0;2025-03-02T00:09:33-08:00;;
25;4646943;25-139220;00;Forrec Design (West) Ltd;Forrec;Issued;2024-12-18T06:08:18-08:00;2025-12-31;Consulting and Management Services;;;;;;Toronto;ON;CA;;;106.0;265.0;2025-03-02T00:09:33-08:00;;
25;4646948;25-139225;00;Can-Zhong International Education Culture & Business Consulting Services Ltd;;Issued;2024-12-11T14:12:23-08:00;2025-12-31;Consulting and Management Services;;;;;;North Vancouver;BC;CA;;;2.0;265.0;2025-03-02T00:09:33-08:00;;
25;4647006;25-139283;00;AECOM Canada Ltd;;Issued;2024-12-24T11:01:57-08:00;2025-12-31;Consulting and Management Services;;;;;;Burnaby;BC;CA;;;10.0;265.0;2025-03-02T00:09:33-08:00;;
25;4647026;25-139303;00;(Decheng Yang);Theragene;Issued;2024-12-02T11:00:38-08:00;2025-12-31;Consulting and Management Services;;;;;;Richmond;BC;CA;;;1.0;265.0;2025-03-02T00:09:33-08:00;;
25;4647111;25-139388;00;Sally Anne Labonete Ocampo (Sally Ocampo);Canada World Connexion Immigration and Consulting Services;Issued;2024-12-22T18:48:45-08:00;2025-12-31;Consulting and Management Services;;;;;;s;BC;CA;;Out of Town;0.0;265.0;2025-03-02T00:09:33-08:00;;
25;4647265;25-139542;00;(Ritu Verma);Pinnacle Canadian Immigration Consultancy;Issued;2024-12-04T22:33:00-08:00;2025-12-31;Consulting and Management Services;;;;;;Surery;BC;CA;;;0.0;265.0;2025-03-02T00:09:33-08:00;;
25;4647412;25-139689;00;Enersaver Solutions Inc;;Issued;2024-12-05T12:45:55-08:00;2025-12-31;Consulting and Management Services;;;;;;Surrey;BC;CA;;Out of Town;10.0;265.0;2025-03-02T00:09:33-08:00;;
25;4647413;25-139690;00;Lanarc 2015 Consultants Ltd;Lanarc;Issued;2024-12-12T15:46:36-08:00;2025-12-31;Consulting and Management Services;;;;;;Nanaimo;BC;CA;;;10.0;265.0;2025-03-02T00:09:33-08:00;;
25;4647514;25-139791;00;Bakau Consulting Inc;;Issued;2024-12-04T16:10:25-08:00;2025-12-31;Consulting and Management Services;;;;;;Burnaby;BC;CA;;Out of Town;7.0;265.0;2025-03-02T00:09:33-08:00;;
25;4647526;25-139803;00;CK Techniconsulting Services Inc;;Issued;2024-12-20T11:08:14-08:00;2025-12-31;Consulting and Management Services;;;;;;Burnaby;BC;CA;;;0.0;265.0;2025-03-02T00:09:33-08:00;;
25;4647539;25-139816;00;Kelly M Ablard (Kelly Ablard);;Issued;2024-12-05T14:21:31-08:00;2025-12-31;Consulting and Management Services;;;;;;North Vancouver;BC;CA;;Out of Town;0.0;265.0;2025-03-02T00:09:33-08:00;;
25;4647734;25-140011;00;Alta Planning + Design Canada Inc;;Issued;2024-12-02T07:05:01-08:00;2025-12-31;Consulting and Management Services;;;;;;Portland;OR;;;Out of Town;232.0;265.0;2025-03-02T00:09:33-08:00;;
25;4647854;25-140131;00;(Doug Martin);Energy Smart Consulting;Issued;2024-12-30T10:14:30-08:00;2025-12-31;Consulting and Management Services;;;;;;Abbotsford;BC;CA;;Out of Town;1.0;265.0;2025-03-02T00:09:33-08:00;;
25;4648370;25-140647;00;INFINITEM CANADA LTD.;;Issued;2024-12-03T16:10:26-08:00;2025-12-31;Consulting and Management Services;;;;;;Mountain View;CA;;;Out of Town;50.0;265.0;2025-03-02T00:09:33-08:00;;
25;4648460;25-140737;00;Miovision Technologies Incorporated;;Issued;2024-12-06T13:35:28-08:00;2025-12-31;Consulting and Management Services;;;;;;Kitchener;ON;CA;;Out of Town;0.0;265.0;2025-03-02T00:09:33-08:00;;
25;4648153;25-140430;00;(Julie Iannacone);Julie Iannacone Consulting;Issued;2024-12-24T07:53:16-08:00;2025-12-31;Consulting and Management Services;;;;;;Burnaby;BC;CA;;Out of Town;0.0;265.0;2025-03-02T00:09:33-08:00;;
25;4648303;25-140580;00;Constance Joyce Hedd (Constance Hedd);Outdoor Decor and Design;Issued;2024-12-04T07:46:45-08:00;2025-12-31;Consulting and Management Services;;;;;;Aldergrove;BC;;;Out of Town;1.0;265.0;2025-03-02T00:09:33-08:00;;
25;4648323;25-140600;00;(Ginger Gosnell-Myers);Ginger Gosnell-Myers Consulting;Issued;2024-12-05T21:04:14-08:00;2025-12-31;Consulting and Management Services;;;;;;NORTH VANCOUVER;BC;;;Out of Town;0.0;265.0;2025-03-02T00:09:33-08:00;;
25;4648569;25-140846;00;CEDAR BRIDGES CONSULTING LTD.;;Issued;2024-12-02T12:44:55-08:00;2025-12-31;Consulting and Management Services;;;;;;Maple Ridge;BC;;;Out of Town;1.0;265.0;2025-03-02T00:09:33-08:00;;
25;4686020;25-165009;00;1119123 BC Ltd;R.J. & Associates Environmental Consulting;Issued;2024-12-23T12:46:58-08:00;2025-12-31;Consulting and Management Services;;;;;;Delta;BC;CA;;Out of Town;5.0;265.0;2025-03-02T00:09:33-08:00;;
25;4686027;25-165016;00;(Maia Smith);;Issued;2024-12-18T20:03:11-08:00;2025-12-31;Consulting and Management Services;;;;;;Vancouver;BC;;;Fairview;1.0;286.0;2025-03-02T00:09:36-08:00;;
25;4686029;25-165018;00;(Jill Elliott);;Issued;2024-12-18T15:46:46-08:00;2025-12-31;Consulting and Management Services;;;;;;Vancouver;BC;;;Hastings-Sunrise;1.0;286.0;2025-03-02T00:09:36-08:00;;
25;4686031;25-165020;00;1331492 B.C. LTD.;Mission Defence Armaments;Issued;2024-12-18T14:34:15-08:00;2025-12-31;Consulting and Management Services;;;;;;Vancouver;BC;;;Dunbar-Southlands;2.0;286.0;2025-03-02T00:09:36-08:00;;
25;4678804;25-159991;00;Emma J Shea (Emma Shea);EJS Public Relations;Issued;2024-12-11T21:00:48-08:00;2025-12-31;Consulting and Management Services;;;;;;Vancouver;BC;CA;;Mount Pleasant;1.0;265.0;2025-03-02T00:09:36-08:00;;
25;4678810;25-159997;00;Exploitation Education Institute Inc;;Issued;2024-12-04T12:03:04-08:00;2025-12-31;Consulting and Management Services;;1800;Unit;450;SW MARINE DRIVE;Vancouver;BC;CA;V5X 0C3;Marpole;1.0;265.0;2025-03-02T00:09:36-08:00;"{""coordinates"": [-123.115976004173, 49.2100109097238], ""type"": ""Point""}";49.2100109097238, -123.115976004173
25;4678816;25-160003;00;(Martin Foley);Barefoot Home Energy;Issued;2024-12-09T17:58:20-08:00;2025-12-31;Consulting and Management Services;;;;;;Vancouver;BC;;;;1.0;265.0;2025-03-02T00:09:36-08:00;;
25;4646699;25-138976;00;Robin B Clark Inc;;Issued;2024-12-01T19:11:44-08:00;2025-12-31;Consulting and Management Services;;;;;;Vancouver;BC;CA;;Dunbar-Southlands;1.0;265.0;2025-03-02T00:09:35-08:00;;
25;4646716;25-138993;00;Pechisker International Business Consulting Inc;Pechisker International Business Consulting;Issued;2024-12-18T15:03:03-08:00;2025-12-31;Consulting and Management Services;;;;;;Vancouver;BC;CA;;West Point Grey;1.0;265.0;2025-03-02T00:09:35-08:00;;
25;4646719;25-138996;00;Evans & Evans Inc;;Issued;2024-12-30T16:46:55-08:00;2025-12-31;Consulting and Management Services;;325;Unit;555;BURRARD ST;Vancouver;BC;CA;V7X 1M8;Downtown;8.0;265.0;2025-03-02T00:09:35-08:00;"{""coordinates"": [-123.118959746657, 49.2865570713147], ""type"": ""Point""}";49.2865570713147, -123.118959746657
25;4646724;25-139001;00;Hybridge Investment Management Inc;;Issued;2024-12-12T14:18:21-08:00;2025-12-31;Consulting and Management Services;;1620;Unit;1075;W Georgia St;Vancouver;BC;CA;V6E 3C9;Downtown;5.0;265.0;2025-03-02T00:09:35-08:00;"{""coordinates"": [-123.122189505874, 49.2858641494082], ""type"": ""Point""}";49.2858641494082, -123.122189505874
25;4646732;25-139009;00;Pheidias Project Management Corp;;Inactive;2024-12-24T13:05:08-08:00;2025-12-31;Consulting and Management Services;;660;Unit;1188;W GEORGIA ST;Vancouver;BC;CA;V6E 4A2;West End;10.0;265.0;2025-03-02T00:09:35-08:00;"{""coordinates"": [-123.125263375086, 49.2866402537813], ""type"": ""Point""}";49.2866402537813, -123.125263375086
25;4646736;25-139013;00;Staples & Company Employee Benefits Consultants Inc;;Issued;2024-12-10T12:48:29-08:00;2025-12-31;Consulting and Management Services;;102;Unit;1525;W 8TH AV;Vancouver;BC;CA;V6J 1T5;Fairview;5.0;265.0;2025-03-02T00:09:35-08:00;"{""coordinates"": [-123.139534650904, 49.2647551681826], ""type"": ""Point""}";49.2647551681826, -123.139534650904
25;4646741;25-139018;00;O & M Productions Ltd;;Issued;2024-12-27T14:02:43-08:00;2025-12-31;Consulting and Management Services;;;;;;Vancouver;BC;CA;;Downtown;2.0;265.0;2025-03-02T00:09:35-08:00;;
25;4646752;25-139029;00;TFP Tax & Financial Planning Corp;TFP Corp;Issued;2024-12-12T10:29:58-08:00;2025-12-31;Consulting and Management Services;;1401;Unit;675;W Hastings St;Vancouver;BC;CA;V6B 1N2;Downtown;1.0;265.0;2025-03-02T00:09:35-08:00;"{""coordinates"": [-123.113337292458, 49.2853511990052], ""type"": ""Point""}";49.2853511990052, -123.113337292458
25;4646772;25-139049;00;(Terrance Walman);;Issued;2024-12-31T16:04:48-08:00;2025-12-31;Consulting and Management Services;;;;;;Vancouver;BC;CA;;Fairview;1.0;265.0;2025-03-02T00:09:35-08:00;;
25;4646805;25-139082;00;Bantry Trading Ltd;;Issued;2024-12-26T05:18:34-08:00;2025-12-31;Consulting and Management Services;;900;Unit;555;BURRARD ST;Vancouver;BC;CA;V7X 1M8;Downtown;1.0;265.0;2025-03-02T00:09:35-08:00;"{""coordinates"": [-123.118959746657, 49.2865570713147], ""type"": ""Point""}";49.2865570713147, -123.118959746657
25;4646813;25-139090;00;(Marie Capewell);M Capewell & Associate;Issued;2024-12-30T09:52:25-08:00;2025-12-31;Consulting and Management Services;;;;;;Vancouver;BC;CA;;Downtown;2.0;265.0;2025-03-02T00:09:35-08:00;;
25;4646820;25-139097;00;(Norman Lam);Multiway International Consultants;Issued;2024-12-25T15:07:34-08:00;2025-12-31;Consulting and Management Services;;;;;;Vancouver;BC;CA;;Hastings-Sunrise;1.0;265.0;2025-03-02T00:09:35-08:00;;
25;4646838;25-139115;00;Stacey Holloway And Associates Ltd;;Issued;2024-12-17T15:10:57-08:00;2025-12-31;Consulting and Management Services;;;;;;Vancouver;BC;CA;;Kitsilano;1.0;265.0;2025-03-02T00:09:35-08:00;;
25;4646851;25-139128;00;(Narinder Rishi);Apna Rishi Law Office;Issued;2024-12-31T19:44:56-08:00;2025-12-31;Consulting and Management Services;;;;6625;FRASER ST;Vancouver;BC;CA;V5X 3T6;Sunset;0.0;265.0;2025-03-02T00:09:35-08:00;"{""coordinates"": [-123.091200331148, 49.2242759551699], ""type"": ""Point""}";49.2242759551699, -123.091200331148
25;4646856;25-139133;00;Micro Protech Industries Incorporated;Destine Canada Immigration Consultancy Services;Issued;2024-12-27T18:11:23-08:00;2025-12-31;Consulting and Management Services;;;;;;Vancouver;BC;CA;;West Point Grey;1.0;265.0;2025-03-02T00:09:35-08:00;;
25;4646859;25-139136;00;Interactivetools.com Inc;;Issued;2024-12-10T14:45:56-08:00;2025-12-31;Consulting and Management Services;;1404;Unit;445;W 2ND AV;Vancouver;BC;CA;V5Y 0E8;Mount Pleasant;1.0;265.0;2025-03-02T00:09:35-08:00;"{""coordinates"": [-123.114082470381, 49.2676239401626], ""type"": ""Point""}";49.2676239401626, -123.114082470381
25;4646860;25-139137;00;(Henry Epp);Epp Consulting;Issued;2024-12-01T16:10:16-08:00;2025-12-31;Consulting and Management Services;;;;;;Vancouver;BC;CA;;Downtown;0.0;265.0;2025-03-02T00:09:35-08:00;;
25;4646895;25-139172;00;Nippon Profoods (Canada) Ltd;Consultancy For Food Ingredients or Food Machinery Nippon Profoods;Issued;2024-12-09T00:43:25-08:00;2025-12-31;Consulting and Management Services;;;;;;Vancouver;BC;CA;;Hastings-Sunrise;1.0;265.0;2025-03-02T00:09:35-08:00;;
25;4646927;25-139204;00;Terra Housing Consultants BC Ltd;;Issued;2024-12-31T13:51:31-08:00;2025-12-31;Consulting and Management Services;;2nd Floor;Unit;2750;RUPERT ST;Vancouver;BC;CA;V5M 3T7;Renfrew-Collingwood;17.0;265.0;2025-03-02T00:09:35-08:00;"{""coordinates"": [-123.033232290055, 49.2598639832968], ""type"": ""Point""}";49.2598639832968, -123.033232290055
25;4646930;25-139207;00;SBM Consulting Ltd;;Issued;2024-12-27T04:49:32-08:00;2025-12-31;Consulting and Management Services;;300;Unit;422;RICHARDS ST;Vancouver;BC;CA;V6B 2Z4;Downtown;5.0;265.0;2025-03-02T00:09:35-08:00;"{""coordinates"": [-123.111926364132, 49.2836865871596], ""type"": ""Point""}";49.2836865871596, -123.111926364132
25;4646951;25-139228;00;Catharine Gay Yee Chang (Catharine Chang);C2C Life Coaching;Issued;2024-12-31T17:10:51-08:00;2025-12-31;Consulting and Management Services;;;;;;Vancouver;BC;CA;;Dunbar-Southlands;0.0;265.0;2025-03-02T00:09:35-08:00;;
25;4646952;25-139229;00;FABCO Holdings Canada Inc;;Issued;2024-12-13T04:58:49-08:00;2025-12-31;Consulting and Management Services;;;;;;Vancouver;BC;CA;;Kitsilano;2.0;265.0;2025-03-02T00:09:35-08:00;;
25;4646963;25-139240;00;Textuality Services Inc;Textuality Services;Issued;2024-12-31T11:08:25-08:00;2025-12-31;Consulting and Management Services;;;;;;Vancouver;BC;CA;;Riley Park;2.0;265.0;2025-03-02T00:09:35-08:00;;
25;4646968;25-139245;00;Delta Economics Group Inc;Delta Economics Group;Issued;2024-12-11T11:26:40-08:00;2025-12-31;Consulting and Management Services;;1100;Unit;1200;W 73RD AV;Vancouver;BC;CA;V6P 6G5;Marpole;2.0;265.0;2025-03-02T00:09:35-08:00;"{""coordinates"": [-123.133618556976, 49.2039954491368], ""type"": ""Point""}";49.2039954491368, -123.133618556976
25;4646973;25-139250;00;IO Corporate Services Ltd;IO;Issued;2024-12-23T13:46:15-08:00;2025-12-31;Consulting and Management Services;;300;Unit;1055;W HASTINGS ST;Vancouver;BC;CA;V6E 2E9;Downtown;2.0;265.0;2025-03-02T00:09:35-08:00;"{""coordinates"": [-123.118192793095, 49.2877342016388], ""type"": ""Point""}";49.2877342016388, -123.118192793095
25;4646974;25-139251;00;(Valery Dubenko);;Issued;2024-12-17T12:15:10-08:00;2025-12-31;Consulting and Management Services;;;;;;Vancouver;BC;CA;;Fairview;0.0;265.0;2025-03-02T00:09:35-08:00;;
25;4646988;25-139265;00;Golden Pacific Consultant (International) Ltd;;Issued;2024-12-11T23:56:17-08:00;2025-12-31;Consulting and Management Services;;312;Unit;1281;W GEORGIA ST;Vancouver;BC;CA;V6E 3J7;Downtown;1.0;265.0;2025-03-02T00:09:35-08:00;"{""coordinates"": [-123.126344928205, 49.2882253834632], ""type"": ""Point""}";49.2882253834632, -123.126344928205
25;4647044;25-139321;00;(Lance Berelowitz);Urban Forum Associates;Issued;2024-12-03T17:20:15-08:00;2025-12-31;Consulting and Management Services;;;;;;Vancouver;BC;CA;;Mount Pleasant;1.0;265.0;2025-03-02T00:09:35-08:00;;
25;4647053;25-139330;00;Simply Eventful Management Inc;;Issued;2024-12-05T16:09:45-08:00;2025-12-31;Consulting and Management Services;;;;;;Vancouver;BC;CA;;Kitsilano;1.0;265.0;2025-03-02T00:09:35-08:00;;
25;4647067;25-139344;00;Accupro Trademark Services (1998) Ltd;Accupro Trademark Services;Issued;2024-12-23T12:16:39-08:00;2025-12-31;Consulting and Management Services;;702;Unit;401;W GEORGIA ST;Vancouver;BC;CA;V6B 5A1;Downtown;0.0;265.0;2025-03-02T00:09:35-08:00;"{""coordinates"": [-123.114675044765, 49.2812916157877], ""type"": ""Point""}";49.2812916157877, -123.114675044765
25;4647080;25-139357;00;Icreative Service Inc;;Issued;2024-12-12T11:52:20-08:00;2025-12-31;Consulting and Management Services;;610;Unit;1385;W 8TH AV;Vancouver;BC;CA;V6H 3V9;Fairview;6.0;265.0;2025-03-02T00:09:35-08:00;"{""coordinates"": [-123.135583198646, 49.2648651525099], ""type"": ""Point""}";49.2648651525099, -123.135583198646
25;4647109;25-139386;00;Kai Uwe Elmauer (Kai Elmauer);elmauer institute:managing consensus;Issued;2024-12-26T17:59:48-08:00;2025-12-31;Consulting and Management Services;;110;Unit;4395;FRASER ST;Vancouver;BC;CA;V5V 4G4;Riley Park;1.0;265.0;2025-03-02T00:09:35-08:00;"{""coordinates"": [-123.090602384727, 49.2457142026607], ""type"": ""Point""}";49.2457142026607, -123.090602384727
25;4647132;25-139409;00;Scenario Creation Ltd;Scenario;Issued;2024-12-27T10:47:35-08:00;2025-12-31;Consulting and Management Services;;;;;;Vancouver;BC;CA;;Downtown;2.0;265.0;2025-03-02T00:09:35-08:00;;
25;4647156;25-139433;00;Ginqo Consulting Ltd;;Issued;2024-12-06T17:21:47-08:00;2025-12-31;Consulting and Management Services;;1000;Unit;355;BURRARD ST;Vancouver;BC;CA;V6C 2G8;Downtown;9.0;265.0;2025-03-02T00:09:35-08:00;"{""coordinates"": [-123.11723844762, 49.2875182283394], ""type"": ""Point""}";49.2875182283394, -123.11723844762
25;4647185;25-139462;00;Scantlings Enterprises Corporation;;Issued;2024-12-28T12:02:55-08:00;2025-12-31;Consulting and Management Services;;;;;;Vancouver;BC;CA;;Fairview;6.0;265.0;2025-03-02T00:09:35-08:00;;
25;4647196;25-139473;00;Fiore Management & Advisory Corp;;Issued;2024-12-23T15:24:12-08:00;2025-12-31;Consulting and Management Services;;3123;Unit;595;BURRARD ST;Vancouver;BC;CA;V7X 1J1;Downtown;17.0;265.0;2025-03-02T00:09:35-08:00;"{""coordinates"": [-123.11972958074, 49.2861303368945], ""type"": ""Point""}";49.2861303368945, -123.11972958074
25;4647198;25-139475;00;Key Marketing Inc;;Issued;2024-12-17T15:40:43-08:00;2025-12-31;Consulting and Management Services;;500;Unit;195;ALEXANDER ST;Vancouver;BC;CA;V6A 1N8;Downtown;13.0;265.0;2025-03-02T00:09:35-08:00;"{""coordinates"": [-123.100011215892, 49.2841998135302], ""type"": ""Point""}";49.2841998135302, -123.100011215892
25;4647204;25-139481;00;HWG Management Consulting Inc;;Issued;2024-12-06T13:40:43-08:00;2025-12-31;Consulting and Management Services;;201;Unit;439;W BROADWAY;Vancouver;BC;CA;V5Y 1R4;Mount Pleasant;1.0;265.0;2025-03-02T00:09:35-08:00;"{""coordinates"": [-123.113979566997, 49.2633739430575], ""type"": ""Point""}";49.2633739430575, -123.113979566997
25;4647206;25-139483;00;Behere Consulting Ltd;Behere Immigration Consulting;Issued;2024-12-26T22:08:57-08:00;2025-12-31;Consulting and Management Services;;411;Unit;850;W HASTINGS ST;Vancouver;BC;CA;V6C 1E1;Downtown;4.0;265.0;2025-03-02T00:09:35-08:00;"{""coordinates"": [-123.115919426108, 49.2862337084847], ""type"": ""Point""}";49.2862337084847, -123.115919426108
25;4647210;25-139487;00;(Helene DeLamare);Helene And The Girl Creations;Issued;2024-12-31T11:23:08-08:00;2025-12-31;Consulting and Management Services;;;;;;Vancouver;BC;CA;;West Point Grey;1.0;265.0;2025-03-02T00:09:35-08:00;;
25;4647221;25-139498;00;Scott Donald Hunt (Scott Hunt);Hunt Business Advisors;Issued;2024-12-06T12:38:59-08:00;2025-12-31;Consulting and Management Services;;;;;;Vancouver;BC;CA;;Kensington-Cedar Cottage;0.0;265.0;2025-03-02T00:09:35-08:00;;
25;4647224;25-139501;00;ARM Marketing Services Inc;;Issued;2024-12-27T15:16:57-08:00;2025-12-31;Consulting and Management Services;;212;Unit;640;W BROADWAY;Vancouver;BC;CA;V5Z 1G4;Fairview;7.0;265.0;2025-03-02T00:09:35-08:00;"{""coordinates"": [-123.118604400903, 49.262959520475], ""type"": ""Point""}";49.262959520475, -123.118604400903
25;4647227;25-139504;00;Keynote Consulting Ltd;;Issued;2024-12-06T08:18:08-08:00;2025-12-31;Consulting and Management Services;;;;;;Vancouver;BC;CA;;Kitsilano;1.0;265.0;2025-03-02T00:09:35-08:00;;
25;4647235;25-139512;00;Mr Good Spirits Inc;;Issued;2024-12-29T16:51:37-08:00;2025-12-31;Consulting and Management Services;;;;;;Vancouver;BC;CA;;Victoria-Fraserview;1.0;265.0;2025-03-02T00:09:35-08:00;;
25;4647241;25-139518;00;CTL Westrans Shipbrokers Inc;;Issued;2024-12-31T10:09:59-08:00;2025-12-31;Consulting and Management Services;;640;Unit;1050;W PENDER ST;Vancouver;BC;CA;V6E 3S7;Downtown;1.0;265.0;2025-03-02T00:09:35-08:00;"{""coordinates"": [-123.119617816817, 49.2868820081552], ""type"": ""Point""}";49.2868820081552, -123.119617816817
25;4647244;25-139521;00;(Nantarath Wichaidit);NCC Immigration;Issued;2024-12-09T19:54:00-08:00;2025-12-31;Consulting and Management Services;;;;;;Vancouver;BC;CA;;Oakridge;1.0;265.0;2025-03-02T00:09:35-08:00;;
25;4647254;25-139531;00;The Fournier Auto Group Ltd;;Issued;2024-12-27T12:09:24-08:00;2025-12-31;Consulting and Management Services;;300;Unit;3665;KINGSWAY;Vancouver;BC;CA;V5R 5W2;Renfrew-Collingwood;1.0;265.0;2025-03-02T00:09:35-08:00;"{""coordinates"": [-123.02419552672, 49.2326670344327], ""type"": ""Point""}";49.2326670344327, -123.02419552672
25;4647304;25-139581;00;M Walsh Business Growth Institute Inc;;Issued;2024-12-20T14:18:53-08:00;2025-12-31;Consulting and Management Services;;200;Unit;1168;HAMILTON ST;Vancouver;BC;CA;V6B 2S2;Downtown;2.0;265.0;2025-03-02T00:09:35-08:00;"{""coordinates"": [-123.121996984635, 49.2750076198637], ""type"": ""Point""}";49.2750076198637, -123.121996984635
25;4647312;25-139589;00;Ramon A B Garcia (Ramon Garcia);Live In Canada Immigration Consulting Services;Issued;2024-12-09T12:56:47-08:00;2025-12-31;Consulting and Management Services;;;;;;Vancouver;BC;CA;;Killarney;1.0;265.0;2025-03-02T00:09:35-08:00;;
25;4647322;25-139599;00;Optimus Information Inc;;Issued;2024-12-16T17:09:15-08:00;2025-12-31;Consulting and Management Services;;510;Unit;900;HOWE ST;Vancouver;BC;CA;V6Z 2S9;Downtown;3.0;265.0;2025-03-02T00:09:35-08:00;"{""coordinates"": [-123.122279791872, 49.2806751596638], ""type"": ""Point""}";49.2806751596638, -123.122279791872
25;4647323;25-139600;00;(Carolyn Camman);;Issued;2024-12-20T09:48:54-08:00;2025-12-31;Consulting and Management Services;;;;;;Vancouver;BC;CA;;Grandview-Woodland;1.0;265.0;2025-03-02T00:09:35-08:00;;
25;4647325;25-139602;00;Victor C Chan (Victor Chan);;Issued;2024-12-09T14:16:00-08:00;2025-12-31;Consulting and Management Services;;;;;;Vancouver;BC;CA;;Victoria-Fraserview;1.0;265.0;2025-03-02T00:09:35-08:00;;
25;4647336;25-139613;00;SANGUINETTI ENGINEERING LTD;;Issued;2024-12-06T15:55:43-08:00;2025-12-31;Consulting and Management Services;;;;;;Vancouver;BC;CA;;Renfrew-Collingwood;1.0;265.0;2025-03-02T00:09:35-08:00;;
25;4647343;25-139620;00;Elizabeth Ann Froese (Elizabeth Froese);Elizabeth Froese Coaching and Consulting;Issued;2024-12-27T13:15:17-08:00;2025-12-31;Consulting and Management Services;;;;;;Vancouver;BC;CA;;Kitsilano;1.0;265.0;2025-03-02T00:09:35-08:00;;
25;4647355;25-139632;00;Darran Alastair Fernandez (Darran Alastair);Robin Fern And Co;Issued;2024-12-28T12:48:01-08:00;2025-12-31;Consulting and Management Services;;;;;;Vancouver;BC;CA;;Kensington-Cedar Cottage;2.0;265.0;2025-03-02T00:09:35-08:00;;
25;4647377;25-139654;00;Grant W Duckworth (Grant Duckworth);Vancouver Strategic & Integrated Research;Issued;2024-12-31T10:28:19-08:00;2025-12-31;Consulting and Management Services;;600;Unit;1285;W BROADWAY;Vancouver;BC;CA;V6H 3X8;Fairview;1.0;265.0;2025-03-02T00:09:35-08:00;"{""coordinates"": [-123.133218152193, 49.263970218012], ""type"": ""Point""}";49.263970218012, -123.133218152193
25;4647386;25-139663;00;Proactive Resolutions Inc;;Issued;2024-12-08T20:00:41-08:00;2025-12-31;Consulting and Management Services;;300;Unit;1090;HOMER ST;Vancouver;BC;CA;V6B 2W9;Downtown;3.0;265.0;2025-03-02T00:09:35-08:00;"{""coordinates"": [-123.121150522564, 49.2762718935976], ""type"": ""Point""}";49.2762718935976, -123.121150522564
25;4647395;25-139672;00;KNG Consulting & Associates Inc;;Issued;2024-12-02T20:15:01-08:00;2025-12-31;Consulting and Management Services;;;;;;Vancouver;BC;CA;;Kerrisdale;2.0;265.0;2025-03-02T00:09:35-08:00;;
25;4647406;25-139683;00;Paul S Brennan (Paul Brennan);Ironclad Marine Surveys And Consulting;Issued;2024-12-20T23:08:11-08:00;2025-12-31;Consulting and Management Services;;;;;;Vancouver;BC;CA;;Hastings-Sunrise;1.0;265.0;2025-03-02T00:09:35-08:00;;
25;4647418;25-139695;00;Ace Of Diamonds Educations Group Inc;;Issued;2024-12-01T11:30:43-08:00;2025-12-31;Consulting and Management Services;;202;Unit;2445;W 41ST AV;Vancouver;BC;CA;V6M 2A5;Arbutus-Ridge;6.0;265.0;2025-03-02T00:09:35-08:00;"{""coordinates"": [-123.161962771047, 49.2349442447209], ""type"": ""Point""}";49.2349442447209, -123.161962771047
25;4647420;25-139697;00;Eric Chene Consulting Ltd;Eric Chene Consulting;Issued;2024-12-02T20:23:53-08:00;2025-12-31;Consulting and Management Services;;;;;;Vancouver;BC;CA;;Renfrew-Collingwood;2.0;265.0;2025-03-02T00:09:35-08:00;;
25;4647437;25-139714;00;Robyn C L Roscoe (Robyn Roscoe);Lyric Management;Issued;2024-12-31T16:45:30-08:00;2025-12-31;Consulting and Management Services;;;;;;Vancouver;BC;CA;;South Cambie;1.0;265.0;2025-03-02T00:09:35-08:00;;
25;4647438;25-139715;00;Kahui Tautoko Consulting (Canada) Ltd;;Issued;2024-12-18T17:51:20-08:00;2025-12-31;Consulting and Management Services;;;;;;Vancouver;BC;CA;;West End;4.0;265.0;2025-03-02T00:09:35-08:00;;
25;4647456;25-139733;00;Current Talent Ltd;;Issued;2024-12-23T08:44:20-08:00;2025-12-31;Consulting and Management Services;;;;;;Vancouver;BC;CA;;Grandview-Woodland;1.0;265.0;2025-03-02T00:09:35-08:00;;
25;4647465;25-139742;00;Sinauto Canada Inc;;Issued;2024-12-31T09:31:50-08:00;2025-12-31;Consulting and Management Services;;;;;;Vancouver;BC;CA;;Kitsilano;1.0;265.0;2025-03-02T00:09:35-08:00;;
25;4647470;25-139747;00;Paragon Financial Services Inc;;Issued;2024-12-10T12:32:04-08:00;2025-12-31;Consulting and Management Services;;388;Unit;1130;W PENDER ST;Vancouver;BC;CA;V6E 4A4;Downtown;2.0;265.0;2025-03-02T00:09:35-08:00;"{""coordinates"": [-123.121897123509, 49.2873037125159], ""type"": ""Point""}";49.2873037125159, -123.121897123509
25;4647475;25-139752;00;Nature's Botanical Pet Inc;NHV Natural Pet Products;Issued;2024-12-11T12:40:51-08:00;2025-12-31;Consulting and Management Services;;;;;;Vancouver;BC;CA;;Fairview;1.0;265.0;2025-03-02T00:09:35-08:00;;
25;4647503;25-139780;00;Diamond Head Consulting Ltd;;Issued;2024-12-27T11:06:58-08:00;2025-12-31;Consulting and Management Services;;;;3559;COMMERCIAL ST;Vancouver;BC;CA;V5N 4E8;Kensington-Cedar Cottage;25.0;565.0;2025-03-02T00:09:35-08:00;"{""coordinates"": [-123.068417917688, 49.2529653030389], ""type"": ""Point""}";49.2529653030389, -123.068417917688
25;4647508;25-139785;00;GB Immigration Services Ltd;;Issued;2024-12-26T16:48:23-08:00;2025-12-31;Consulting and Management Services;;;;;;Vancouver;BC;CA;;Killarney;1.0;265.0;2025-03-02T00:09:35-08:00;;
25;4647510;25-139787;00;Penny Dianne Cochrane (Penny Cochrane);Penny Cochrane Energy Management Consulting;Issued;2024-12-09T12:05:54-08:00;2025-12-31;Consulting and Management Services;;;;;;Vancouver;BC;CA;;Fairview;1.0;265.0;2025-03-02T00:09:35-08:00;;
25;4647532;25-139809;00;Panalytics Research Group Inc;;Issued;2024-12-16T13:59:45-08:00;2025-12-31;Consulting and Management Services;;1;Unit;2246;SPRUCE ST;Vancouver;BC;CA;V6H 2P3;Fairview;9.0;265.0;2025-03-02T00:09:35-08:00;"{""coordinates"": [-123.127871943391, 49.2657552041993], ""type"": ""Point""}";49.2657552041993, -123.127871943391
25;4647553;25-139830;00;JR International Consulting Ltd;;Issued;2024-12-03T23:11:58-08:00;2025-12-31;Consulting and Management Services;;208;Unit;3103;KINGSWAY;Vancouver;BC;CA;V5R 5J9;Renfrew-Collingwood;2.0;265.0;2025-03-02T00:09:35-08:00;"{""coordinates"": [-123.038968313998, 49.2357753702681], ""type"": ""Point""}";49.2357753702681, -123.038968313998
25;4647561;25-139838;00;(Ivana Mitrasinovic);Akademis Consulting;Inactive;2024-12-31T07:21:45-08:00;2025-12-31;Consulting and Management Services;;;;;;Vancouver;BC;CA;;West End;1.0;265.0;2025-03-02T00:09:35-08:00;;
25;4647585;25-139862;00;Fairview Business Resources Inc;;Issued;2024-12-30T12:31:48-08:00;2025-12-31;Consulting and Management Services;;;;;;Vancouver;BC;CA;;Fairview;1.0;265.0;2025-03-02T00:09:35-08:00;;
25;4647597;25-139874;00;(Chika Nakamura);Chika Working Holiday Agency;Issued;2024-12-29T14:36:06-08:00;2025-12-31;Consulting and Management Services;;;;;;Vancouver;BC;CA;;Kensington-Cedar Cottage;1.0;265.0;2025-03-02T00:09:35-08:00;;
25;4647614;25-139891;00;Kyle T Shea (Kyle Shea);Kyle Shea Coaching;Issued;2024-12-29T21:16:36-08:00;2025-12-31;Consulting and Management Services;;;;;;Vancouver;BC;CA;;Grandview-Woodland;1.0;265.0;2025-03-02T00:09:35-08:00;;
25;4647623;25-139900;00;Innovative Research Group Inc;Innovative Research Group;Issued;2024-12-08T16:21:07-08:00;2025-12-31;Consulting and Management Services;;350;Unit;888;DUNSMUIR ST;Vancouver;BC;CA;V6C 3K4;Downtown;3.0;265.0;2025-03-02T00:09:35-08:00;"{""coordinates"": [-123.118347310136, 49.2845427546149], ""type"": ""Point""}";49.2845427546149, -123.118347310136
25;4647655;25-139932;00;Yutek Consulting Inc;;Issued;2024-12-04T11:11:11-08:00;2025-12-31;Consulting and Management Services;;;;;;Vancouver;BC;CA;;Dunbar-Southlands;2.0;265.0;2025-03-02T00:09:35-08:00;;
25;4647656;25-139933;00;Acrog Tas Consulting Ltd;;Issued;2024-12-24T05:34:35-08:00;2025-12-31;Consulting and Management Services;;170;Unit;422;RICHARDS ST;Vancouver;BC;CA;V6B 2Z4;Downtown;1.0;265.0;2025-03-02T00:09:35-08:00;"{""coordinates"": [-123.111926364132, 49.2836865871596], ""type"": ""Point""}";49.2836865871596, -123.111926364132
25;4647659;25-139936;00;(Frank Wong);IKO Innovations;Issued;2024-12-30T12:52:17-08:00;2025-12-31;Consulting and Management Services;;;;;;Vancouver;BC;CA;;Sunset;2.0;265.0;2025-03-02T00:09:35-08:00;;
25;4647666;25-139943;00;Concept One Cohesive Holdings Ltd;;Issued;2024-12-28T08:24:38-08:00;2025-12-31;Consulting and Management Services;;;;;;Vancouver;BC;CA;;Hastings-Sunrise;1.0;265.0;2025-03-02T00:09:35-08:00;;
25;4647677;25-139954;00;Exiger Canada Inc;;Issued;2024-12-23T13:09:02-08:00;2025-12-31;Consulting and Management Services;;1501;Unit;808;NELSON ST;Vancouver;BC;CA;V6Z 2H2;Downtown;82.0;265.0;2025-03-02T00:09:35-08:00;"{""coordinates"": [-123.124913915747, 49.2800408534638], ""type"": ""Point""}";49.2800408534638, -123.124913915747
25;4647685;25-139962;00;Sung-Tao Ting & Hsiao-Ming Ting;CT Services;Issued;2024-12-19T15:29:49-08:00;2025-12-31;Consulting and Management Services;;;;;;Vancouver;BC;CA;;South Cambie;2.0;265.0;2025-03-02T00:09:35-08:00;;
25;4647687;25-139964;00;Asana A Ghotly (Asana Ghotly);Asana Business Solutions;Issued;2024-12-28T09:11:12-08:00;2025-12-31;Consulting and Management Services;;;;;;Vancouver;BC;CA;;Renfrew-Collingwood;1.0;265.0;2025-03-02T00:09:35-08:00;;
25;4647700;25-139977;00;Dylan Waite Group Inc;;Issued;2024-12-19T08:47:10-08:00;2025-12-31;Consulting and Management Services;;;;;;Vancouver;BC;CA;;Mount Pleasant;1.0;265.0;2025-03-02T00:09:35-08:00;;
25;4647708;25-139985;00;Krysalix Solutions Inc;;Issued;2024-12-09T18:18:00-08:00;2025-12-31;Consulting and Management Services;;303;Unit;938;HOWE ST;Vancouver;BC;CA;V6Z 1N9;Downtown;1.0;265.0;2025-03-02T00:09:35-08:00;"{""coordinates"": [-123.122835857511, 49.2803098063228], ""type"": ""Point""}";49.2803098063228, -123.122835857511
25;4647713;25-139990;00;Intelligent Prospect Inc;Intelligent Prospect;Issued;2024-12-28T07:20:06-08:00;2025-12-31;Consulting and Management Services;;;;;;Vancouver;BC;CA;;Arbutus-Ridge;1.0;265.0;2025-03-02T00:09:35-08:00;;
25;4647725;25-140002;00;Caravan Digital Studios Inc;;Issued;2024-12-10T10:11:46-08:00;2025-12-31;Consulting and Management Services;;1210;Unit;250;HOWE ST;Vancouver;BC;CA;V6C 3R8;Downtown;3.0;265.0;2025-03-02T00:09:35-08:00;"{""coordinates"": [-123.113252488858, 49.2866526135765], ""type"": ""Point""}";49.2866526135765, -123.113252488858
25;4647732;25-140009;00;(Lauren Moore);CONSULTDHH;Inactive;2024-12-20T22:27:37-08:00;2025-12-31;Consulting and Management Services;;;;;;Vancouver;BC;CA;;Marpole;1.0;265.0;2025-03-02T00:09:35-08:00;;
25;4647785;25-140062;00;Sandberg Consulting Ltd;;Issued;2024-12-10T17:35:10-08:00;2025-12-31;Consulting and Management Services;;;;;;Vancouver;BC;CA;;Downtown;1.0;265.0;2025-03-02T00:09:35-08:00;;
25;4647801;25-140078;00;Mei Mee Consulting Inc;;Issued;2024-12-02T22:02:55-08:00;2025-12-31;Consulting and Management Services;;;;;;Vancouver;BC;CA;;Grandview-Woodland;1.0;265.0;2025-03-02T00:09:35-08:00;;
25;4647803;25-140080;00;Revere Communications Inc;;Issued;2024-12-03T16:00:03-08:00;2025-12-31;Consulting and Management Services;;;;;;Vancouver;BC;CA;;Kitsilano;2.0;265.0;2025-03-02T00:09:35-08:00;;
25;4647821;25-140098;00;(Jun Zhang);VIM Health And Technologies;Issued;2024-12-26T15:27:50-08:00;2025-12-31;Consulting and Management Services;;170;Unit;422;RICHARDS ST;Vancouver;BC;CA;V6B 2Z4;Downtown;0.0;265.0;2025-03-02T00:09:35-08:00;"{""coordinates"": [-123.111926364132, 49.2836865871596], ""type"": ""Point""}";49.2836865871596, -123.111926364132
25;4647828;25-140105;00;Ensero Holdings Canada Inc;Ensero Solutions Canada Inc;Issued;2024-12-20T08:24:50-08:00;2025-12-31;Consulting and Management Services;;410;Unit;885;DUNSMUIR ST;Vancouver;BC;CA;V6C 1N5;Downtown;10.0;265.0;2025-03-02T00:09:35-08:00;"{""coordinates"": [-123.117864048567, 49.2848648439924], ""type"": ""Point""}";49.2848648439924, -123.117864048567
25;4647847;25-140124;00;Baron Global Financial Canada Ltd;;Issued;2024-12-02T09:56:43-08:00;2025-12-31;Consulting and Management Services;;2250;Unit;1055;W HASTINGS ST;Vancouver;BC;CA;V6E 2E9;Downtown;5.0;265.0;2025-03-02T00:09:35-08:00;"{""coordinates"": [-123.118192793095, 49.2877342016388], ""type"": ""Point""}";49.2877342016388, -123.118192793095
25;4647858;25-140135;00;Urban Design & Development Consulting Ltd;;Issued;2024-12-09T17:48:08-08:00;2025-12-31;Consulting and Management Services;;;;;;Vancouver;BC;CA;;South Cambie;0.0;265.0;2025-03-02T00:09:35-08:00;;
25;4647860;25-140137;00;DPM Consulting Ltd;;Issued;2024-12-09T13:22:41-08:00;2025-12-31;Consulting and Management Services;;400;Unit;601;W BROADWAY;Vancouver;BC;CA;V5Z 4C2;Fairview;2.0;265.0;2025-03-02T00:09:35-08:00;"{""coordinates"": [-123.118596122757, 49.2635657969344], ""type"": ""Point""}";49.2635657969344, -123.118596122757
25;4647900;25-140177;00;Constance L Phenix   (Constance  Phenix );Phenix and Associates;Issued;2024-12-09T15:47:19-08:00;2025-12-31;Consulting and Management Services;;;;;;Vancouver;BC;CA;;Downtown;1.0;265.0;2025-03-02T00:09:35-08:00;;
25;4647906;25-140183;00;(Tamara Shulman);Tamara Shulman and Associates;Issued;2024-12-31T14:26:58-08:00;2025-12-31;Consulting and Management Services;;;;;;Vancouver;BC;CA;;Kensington-Cedar Cottage;1.0;265.0;2025-03-02T00:09:35-08:00;;
25;4647913;25-140190;00;Aspect Structural Engineers Canada Ltd;Aspect Structural Engineers;Issued;2024-12-23T08:29:43-08:00;2025-12-31;Consulting and Management Services;;101;Unit;190;W 3RD AV;Vancouver;BC;CA;V5Y 1E9;Mount Pleasant;30.0;265.0;2025-03-02T00:09:35-08:00;"{""coordinates"": [-123.109155531909, 49.2681105726015], ""type"": ""Point""}";49.2681105726015, -123.109155531909
25;4647919;25-140196;00;Miraple Intl-Trading Ltd;;Issued;2024-12-09T08:13:32-08:00;2025-12-31;Consulting and Management Services;;;;;;Vancouver;BC;CA;;Kerrisdale;1.0;265.0;2025-03-02T00:09:35-08:00;;
25;4647921;25-140198;00;(Christopher Kubinski);Swift Education Services;Issued;2024-12-19T00:14:21-08:00;2025-12-31;Consulting and Management Services;;;;;;Vancouver;BC;CA;;Kitsilano;1.0;265.0;2025-03-02T00:09:35-08:00;;
25;4647940;25-140217;00;Highway 99 Technology Solutions Inc;;Issued;2024-12-23T08:04:36-08:00;2025-12-31;Consulting and Management Services;;;;;;Vancouver;BC;CA;;Downtown;1.0;265.0;2025-03-02T00:09:35-08:00;;
25;4647945;25-140222;00;(Edwina Chiu);;Issued;2024-12-31T15:17:10-08:00;2025-12-31;Consulting and Management Services;;;;;;Vancouver;BC;CA;;Marpole;1.0;265.0;2025-03-02T00:09:35-08:00;;
25;4647952;25-140229;00;PD Development Corporation;Purpose Driven Development and Planning;Issued;2024-12-09T15:26:58-08:00;2025-12-31;Consulting and Management Services;;502;Unit;134;ABBOTT ST;Vancouver;BC;CA;V6B 2K4;Downtown;6.0;265.0;2025-03-02T00:09:35-08:00;"{""coordinates"": [-123.106005896093, 49.2840832173454], ""type"": ""Point""}";49.2840832173454, -123.106005896093
25;4647956;25-140233;00;(Harriet Goodwin);Harriet Goodwin;Issued;2024-12-29T03:08:40-08:00;2025-12-31;Consulting and Management Services;;;;;;Vancouver;BC;CA;;Fairview;1.0;265.0;2025-03-02T00:09:35-08:00;;
25;4647970;25-140247;00;(Leonor Lima);Leonor Lima Immigration Consulting;Issued;2024-12-31T14:15:22-08:00;2025-12-31;Consulting and Management Services;;;;;;Vancouver;BC;CA;;Kitsilano;1.0;265.0;2025-03-02T00:09:35-08:00;;
25;4647984;25-140261;00;VIP Education Consulting Inc;VIP English Academy;Issued;2024-12-05T13:45:41-08:00;2025-12-31;Consulting and Management Services;;;;;;Vancouver;BC;CA;;Dunbar-Southlands;1.0;265.0;2025-03-02T00:09:35-08:00;;
25;4647986;25-140263;00;0965688 B.C. LTD;Procogia Services;Issued;2024-12-05T09:49:10-08:00;2025-12-31;Consulting and Management Services;;560;Unit;1575;W GEORGIA ST;Vancouver;BC;CA;V6G 2V3;Downtown;7.0;265.0;2025-03-02T00:09:35-08:00;"{""coordinates"": [-123.129990856426, 49.2906583641467], ""type"": ""Point""}";49.2906583641467, -123.129990856426
25;4648004;25-140281;00;Legacy Environmental Ltd;;Issued;2024-12-16T13:00:05-08:00;2025-12-31;Consulting and Management Services;;;;;;Vancouver;BC;CA;;Downtown;10.0;265.0;2025-03-02T00:09:35-08:00;;
25;4648012;25-140289;00;Modus Planning Design and Engagement Inc;Modus;Issued;2024-12-10T13:11:36-08:00;2025-12-31;Consulting and Management Services;;207;Unit;55;E CORDOVA ST;Vancouver;BC;CA;V6A 0A5;Downtown;13.0;265.0;2025-03-02T00:09:35-08:00;"{""coordinates"": [-123.102961461185, 49.282594480169], ""type"": ""Point""}";49.282594480169, -123.102961461185
25;4648026;25-140303;00;V9 Immigration Inc;;Issued;2024-12-18T10:19:03-08:00;2025-12-31;Consulting and Management Services;;218;Unit;515;W PENDER ST;Vancouver;BC;CA;V6B 6H5;Downtown;1.0;265.0;2025-03-02T00:09:35-08:00;"{""coordinates"": [-123.113123090414, 49.2838690672845], ""type"": ""Point""}";49.2838690672845, -123.113123090414
25;4648056;25-140333;00;(Jason Mah);Jason Mah Consulting;Issued;2024-12-22T16:04:03-08:00;2025-12-31;Consulting and Management Services;;;;;;Vancouver;BC;CA;;Fairview;0.0;265.0;2025-03-02T00:09:35-08:00;;
25;4648063;25-140340;00;Hallett and Stewart Inc;;Issued;2024-12-05T23:12:10-08:00;2025-12-31;Consulting and Management Services;;310;Unit;2902;W BROADWAY;Vancouver;BC;CA;V6K 2G8;Kitsilano;2.0;265.0;2025-03-02T00:09:35-08:00;"{""coordinates"": [-123.170800252596, 49.2638482274214], ""type"": ""Point""}";49.2638482274214, -123.170800252596
25;4648078;25-140355;00;Somm Wine Guy Consulting Inc;;Issued;2024-12-13T15:52:17-08:00;2025-12-31;Consulting and Management Services;;;;;;Vancouver;BC;CA;;Riley Park;1.0;265.0;2025-03-02T00:09:35-08:00;;
25;4648095;25-140372;00;Daniel D Verhagen  (Daniel  Verhagen );DANIELVERHAGEN MARKETING AND DEVELOPMENT;Issued;2024-12-21T09:00:44-08:00;2025-12-31;Consulting and Management Services;;;;;;Vancouver;BC;CA;;Kitsilano;1.0;265.0;2025-03-02T00:09:35-08:00;;
25;4648096;25-140373;00;Nancy L Hogan (Nancy Hogan);Hogan HR Consulting;Issued;2024-12-27T17:57:44-08:00;2025-12-31;Consulting and Management Services;;;;;;Vancouver;BC;CA;;Fairview;1.0;265.0;2025-03-02T00:09:35-08:00;;
25;4648136;25-140413;00;Asnate Marianna Fomina (Asnate Fomina);The Mind Mastering;Gone Out of Business;2024-12-28T11:54:00-08:00;2025-12-31;Consulting and Management Services;;;;;;Vancouver;BC;CA;;West End;1.0;265.0;2025-03-02T00:09:35-08:00;;
25;4648165;25-140442;00;Lynn L Corrigan & Carol J Sutton;Profound Learning Experiences;Issued;2024-12-11T11:38:51-08:00;2025-12-31;Consulting and Management Services;;400;Unit;601;W BROADWAY;Vancouver;BC;CA;V5Z 4C2;Fairview;2.0;265.0;2025-03-02T00:09:35-08:00;"{""coordinates"": [-123.118596122757, 49.2635657969344], ""type"": ""Point""}";49.2635657969344, -123.118596122757
25;4648178;25-140455;00;Knudsen Taylor Limited;;Issued;2024-12-07T12:58:30-08:00;2025-12-31;Consulting and Management Services;;;;;;Vancouver;BC;CA;;Mount Pleasant;2.0;265.0;2025-03-02T00:09:35-08:00;;
25;4648189;25-140466;00;Camosun Advisory Corp;;Issued;2024-12-15T15:03:23-08:00;2025-12-31;Consulting and Management Services;;;;;;Vancouver;BC;CA;;Dunbar-Southlands;2.0;265.0;2025-03-02T00:09:35-08:00;;
25;4648215;25-140492;00;P Howell Consulting Ltd;Howell Academics;Issued;2024-12-04T09:45:07-08:00;2025-12-31;Consulting and Management Services;;990;Unit;1200;W 73RD AV;Vancouver;BC;CA;V6P 6G5;Marpole;2.0;265.0;2025-03-02T00:09:35-08:00;"{""coordinates"": [-123.133618556976, 49.2039954491368], ""type"": ""Point""}";49.2039954491368, -123.133618556976
25;4648229;25-140506;00;(Kenneth Lee);;Issued;2024-12-24T15:54:15-08:00;2025-12-31;Consulting and Management Services;;;;;;Vancouver;BC;;;Oakridge;1.0;265.0;2025-03-02T00:09:35-08:00;;
25;4648254;25-140531;00;S&Co Supply Chain Logistics Consulting Inc;;Inactive;2024-12-13T16:05:30-08:00;2025-12-31;Consulting and Management Services;;;;;;Vancouver;BC;CA;;Hastings-Sunrise;1.0;265.0;2025-03-02T00:09:35-08:00;;
25;4648258;25-140535;00;1408497 B.C. LTD.;;Issued;2024-12-23T16:31:32-08:00;2025-12-31;Consulting and Management Services;;;;;;Vancouver;BC;;;Downtown;1.0;265.0;2025-03-02T00:09:35-08:00;;
25;4648267;25-140544;00;UNLOCK YOUR BODY-MIND POTENTIAL INC.;;Issued;2024-12-27T12:30:13-08:00;2025-12-31;Consulting and Management Services;;;;;;Vancouver;BC;;;Kitsilano;1.0;265.0;2025-03-02T00:09:35-08:00;;
25;4648270;25-140547;00;CASEY CHUNG COACHING LTD;Casey Chung Coaching;Issued;2024-12-30T10:21:09-08:00;2025-12-31;Consulting and Management Services;;;;;;Vancouver;BC;;;Kitsilano;2.0;265.0;2025-03-02T00:09:35-08:00;;
25;4648271;25-140548;00;(Young Park);Lark Education;Issued;2024-12-21T16:00:18-08:00;2025-12-31;Consulting and Management Services;;1100;Unit;1200;W 73RD AV;Vancouver;BC;CA;V6P 6G5;Marpole;2.0;265.0;2025-03-02T00:09:35-08:00;"{""coordinates"": [-123.133618556976, 49.2039954491368], ""type"": ""Point""}";49.2039954491368, -123.133618556976
25;4648287;25-140564;00;(Yan Li);LiYan;Issued;2024-12-06T22:09:21-08:00;2025-12-31;Consulting and Management Services;;;;;;Vancouver;BC;;;Marpole;1.0;265.0;2025-03-02T00:09:35-08:00;;
25;4648306;25-140583;00;THE NEUTRAL ZONE HUMAN RIGHTS CONSULTING SERVICES INC.;The Neutral Zone;Issued;2024-12-10T16:52:27-08:00;2025-12-31;Consulting and Management Services;;;;;;Vancouver;BC;;;Downtown;9.0;265.0;2025-03-02T00:09:35-08:00;;
25;4648314;25-140591;00;Blessings Bloom Consulting Inc;Foon Sum Yuen Metaphysics Consulting;Issued;2024-12-04T21:56:15-08:00;2025-12-31;Consulting and Management Services;;250;Unit;997;SEYMOUR STREET;Vancouver;BC;;V6B 3M1;Downtown;1.0;265.0;2025-03-02T00:09:35-08:00;;
25;4648316;25-140593;00;(Michelle Kotowski);Redcedar Tree of Life;Issued;2024-12-10T12:48:18-08:00;2025-12-31;Consulting and Management Services;;;;;;Vancouver;BC;;;Killarney;1.0;265.0;2025-03-02T00:09:35-08:00;;
25;4646650;25-138927;00;Escudo Industries Inc;;Issued;2024-12-29T09:58:19-08:00;2025-12-31;Consulting and Management Services;;;;;;Vancouver;BC;CA;;Killarney;2.0;265.0;2025-03-02T00:09:35-08:00;;
25;4646675;25-138952;00;ABM Environmental Inc;;Issued;2024-12-01T15:39:52-08:00;2025-12-31;Consulting and Management Services;;;;;;Vancouver;BC;CA;;Downtown;1.0;565.0;2025-03-02T00:09:35-08:00;;
25;4646681;25-138958;00;Arcom Consulting Ltd;;Issued;2024-12-06T14:19:56-08:00;2025-12-31;Consulting and Management Services;;;;;;Vancouver;BC;CA;;Kerrisdale;1.0;265.0;2025-03-02T00:09:35-08:00;;
25;4646688;25-138965;00;Jadranka Audrey Jakus (Jadranka Jakus);;Issued;2024-12-17T11:47:06-08:00;2025-12-31;Consulting and Management Services;;;;;;Vancouver;BC;CA;;Killarney;1.0;265.0;2025-03-02T00:09:35-08:00;;
25;4648372;25-140649;00;1089939 B.C. LTD;ARG Energy;Issued;2024-12-09T18:12:47-08:00;2025-12-31;Consulting and Management Services;;;;4107;FRASER ST;Vancouver;BC;CA;V5V 4E9;Riley Park;1.0;565.0;2025-03-02T00:09:35-08:00;"{""coordinates"": [-123.090522644854, 49.2483475201822], ""type"": ""Point""}";49.2483475201822, -123.090522644854
25;4648395;25-140672;00;NGL Nordicity Group Ltd;;Issued;2024-12-03T11:04:25-08:00;2025-12-31;Consulting and Management Services;;;;811;POWELL ST;Vancouver;BC;CA;V6A 1H7;Strathcona;6.0;265.0;2025-03-02T00:09:35-08:00;"{""coordinates"": [-123.086722450429, 49.2831843813803], ""type"": ""Point""}";49.2831843813803, -123.086722450429
25;4648397;25-140674;00;(Mykola Iskovych);;Issued;2024-12-08T18:32:39-08:00;2025-12-31;Consulting and Management Services;;;;;;Vancouver;BC;CA;;West End;1.0;265.0;2025-03-02T00:09:35-08:00;;
25;4648406;25-140683;00;TRAVELVAX CLINIC INC.;Travelvax clinic;Issued;2024-12-11T23:06:18-08:00;2025-12-31;Consulting and Management Services;;750;Unit;700;W PENDER ST;Vancouver;BC;;V6C 1G8;Downtown;1.0;265.0;2025-03-02T00:09:35-08:00;"{""coordinates"": [-123.115619724804, 49.2848045499607], ""type"": ""Point""}";49.2848045499607, -123.115619724804
25;4648416;25-140693;00;(Rebecca De Souza);;Issued;2024-12-28T20:28:19-08:00;2025-12-31;Consulting and Management Services;;;;;;Vancouver;BC;;;Mount Pleasant;1.0;265.0;2025-03-02T00:09:35-08:00;;
25;4648419;25-140696;00;(Anton Remizov);ANTHONY & CO. DESIGN SERVICES;Issued;2024-12-20T10:26:30-08:00;2025-12-31;Consulting and Management Services;;;;;;Vancouver;BC;;;Mount Pleasant;1.0;265.0;2025-03-02T00:09:35-08:00;;
25;4648434;25-140711;00;The Sun Education Counselling Services Inc;;Issued;2024-12-13T22:15:59-08:00;2025-12-31;Consulting and Management Services;;;;;;Vancouver;BC;;;Marpole;4.0;265.0;2025-03-02T00:09:35-08:00;;
25;4648443;25-140720;00;(Thomas Clyne-Salley);Thomas Clyne-Salley Consulting;Issued;2024-12-06T09:19:32-08:00;2025-12-31;Consulting and Management Services;;;;;;Vancouver;BC;;;;1.0;265.0;2025-03-02T00:09:35-08:00;;
25;4648444;25-140721;00;ACCESSIBLE PLACES INCORPORATED;;Issued;2024-12-27T13:13:47-08:00;2025-12-31;Consulting and Management Services;;;;;;Vancouver;BC;;;Kitsilano;1.0;265.0;2025-03-02T00:09:35-08:00;;
25;4648472;25-140749;00;Tristan Irons & Heather Andrews;Platypus Group International;Issued;2024-12-23T10:36:03-08:00;2025-12-31;Consulting and Management Services;;;;;;Vancouver;BC;;;Downtown;1.0;265.0;2025-03-02T00:09:35-08:00;;
25;4648501;25-140778;00;(Kirsten Osterreicher);Better Than A Ham Sandwich Productions;Issued;2024-12-06T14:27:38-08:00;2025-12-31;Consulting and Management Services;;;;;;Vancouver;BC;;;Kitsilano;1.0;265.0;2025-03-02T00:09:35-08:00;;
25;4648522;25-140799;00;(Kathryn Manning);KCManning Consulting;Issued;2024-12-11T15:11:30-08:00;2025-12-31;Consulting and Management Services;;;;;;Vancouver;BC;;;Renfrew-Collingwood;1.0;265.0;2025-03-02T00:09:35-08:00;;
25;4648526;25-140803;00;(Peter Whitelaw);Anura Consulting;Issued;2024-12-20T17:34:07-08:00;2025-12-31;Consulting and Management Services;;;;;;Vancouver;BC;;;Riley Park;1.0;265.0;2025-03-02T00:09:35-08:00;;
25;4648528;25-140805;00;CRJ CONSULTING INC.;;Issued;2024-12-02T19:47:52-08:00;2025-12-31;Consulting and Management Services;;;;;;Vancouver;BC;;;Downtown;2.0;265.0;2025-03-02T00:09:35-08:00;;
25;4648566;25-140843;00;(Allyson Stoll);Datallurgy Consulting Services;Issued;2024-12-31T11:29:39-08:00;2025-12-31;Consulting and Management Services;;;;;;Vancouver;BC;;;Victoria-Fraserview;1.0;265.0;2025-03-02T00:09:35-08:00;;
25;4648581;25-140858;00;(Daniel Muff);Music by Karl;Issued;2024-12-22T22:58:57-08:00;2025-12-31;Consulting and Management Services;;;;;;Vancouver;BC;CA;;Mount Pleasant;1.0;265.0;2025-03-02T00:09:35-08:00;;
25;4648583;25-140860;00;(Marielle de Vassoigne);Marielle de Vassoigne Coach;Issued;2024-12-30T10:33:17-08:00;2025-12-31;Consulting and Management Services;;;;;;Vancouver;BC;;;Downtown;1.0;265.0;2025-03-02T00:09:35-08:00;;
25;4648595;25-140872;00;(Tara Miller);;Issued;2024-12-21T19:52:26-08:00;2025-12-31;Consulting and Management Services;;;;;;Vancouver;BC;;;Killarney;1.0;265.0;2025-03-02T00:09:35-08:00;;
25;4648603;25-140880;00;ENA CONSULTING LTD.;;Issued;2024-12-12T07:53:22-08:00;2025-12-31;Consulting and Management Services;;;;;;Vancouver;BC;;;Downtown;1.0;265.0;2025-03-02T00:09:35-08:00;;
25;4648611;25-140888;00;PROTEGE MARKETING COLLECTIVE INC.;;Issued;2024-12-30T21:09:27-08:00;2025-12-31;Consulting and Management Services;;;;;;Vancouver;BC;;;Marpole;1.0;265.0;2025-03-02T00:09:35-08:00;;
25;4648627;25-140904;00;Noram Industrial Holdings Ltd;;Issued;2024-12-17T13:53:56-08:00;2025-12-31;Consulting and Management Services;;1910;Unit;200;GRANVILLE ST;Vancouver;BC;CA;V6C 1S4;Downtown;1.0;265.0;2025-03-02T00:09:35-08:00;"{""coordinates"": [-123.112189281814, 49.2866321702408], ""type"": ""Point""}";49.2866321702408, -123.112189281814
25;4648632;25-140909;00;Gregory Van Poppel (Gregory Poppel);;Issued;2024-12-28T11:21:54-08:00;2025-12-31;Consulting and Management Services;;;;2312;HEATHER STREET;Vancouver;BC;;V5Z 4R6;Fairview;1.0;265.0;2025-03-02T00:09:35-08:00;;
25;4648634;25-140911;00;(Cameron Nairne);Synergy Support;Issued;2024-12-31T16:35:17-08:00;2025-12-31;Consulting and Management Services;;;;;;Vancouver;BC;;;Renfrew-Collingwood;1.0;265.0;2025-03-02T00:09:35-08:00;;
25;4648644;25-140921;00;STAR-CAN IMMIGRATION CONSULTING INC.;;Issued;2024-12-30T11:27:27-08:00;2025-12-31;Consulting and Management Services;;1100;Unit;1200;W 73RD AVENUE;Vancouver;BC;;V6P 6G5;Marpole;2.0;265.0;2025-03-02T00:09:35-08:00;;
25;4648653;25-140930;00;SENSE AND MOTION HOLDINGS LTD.;;Issued;2024-12-16T13:29:54-08:00;2025-12-31;Consulting and Management Services;;;;;;Vancouver;BC;;;Mount Pleasant;0.0;265.0;2025-03-02T00:09:35-08:00;;
25;4648655;25-140932;00;(Ming I Emily Lu);;Issued;2024-12-27T08:36:23-08:00;2025-12-31;Consulting and Management Services;;;;;;Vancouver;BC;;;South Cambie;1.0;265.0;2025-03-02T00:09:35-08:00;;
25;4648658;25-140935;00;Collabera Canada Inc;;Issued;2024-12-04T14:31:10-08:00;2025-12-31;Consulting and Management Services;;260;Unit;1075;W GEORGIA ST;Vancouver;BC;CA;V6E 3C9;Downtown;3.0;265.0;2025-03-02T00:09:35-08:00;"{""coordinates"": [-123.122189505874, 49.2858641494082], ""type"": ""Point""}";49.2858641494082, -123.122189505874
25;4648660;25-140937;00;HANLON HOLDINGS LTD.;;Issued;2024-12-19T18:29:28-08:00;2025-12-31;Consulting and Management Services;;;;;;Vancouver;BC;;;West End;2.0;265.0;2025-03-02T00:09:35-08:00;;
25;4648661;25-140938;00;EQUISCAPE CONSULTING INC.;;Issued;2024-12-11T13:34:20-08:00;2025-12-31;Consulting and Management Services;;;;;;Vancouver;BC;;;Strathcona;1.0;265.0;2025-03-02T00:09:35-08:00;;
25;4648681;25-140958;00;SARAH DOBSON INTERNATIONAL INC.;Sarah Dobson & Co;Issued;2024-12-06T14:24:12-08:00;2025-12-31;Consulting and Management Services;;602;Unit;1055;W BROADWAY;Vancouver;BC;;V6H 1E2;Fairview;1.0;265.0;2025-03-02T00:09:35-08:00;"{""coordinates"": [-123.127803379894, 49.2637106519185], ""type"": ""Point""}";49.2637106519185, -123.127803379894
25;4678800;25-159987;00;ASH KATEY LTD;;Issued;2024-12-05T15:11:03-08:00;2025-12-31;Consulting and Management Services;;209;Unit;223;W BROADWAY;Vancouver;BC;CA;V5Y 1P5;Mount Pleasant;2.0;265.0;2025-03-02T00:09:36-08:00;"{""coordinates"": [-123.109875854161, 49.2632995162305], ""type"": ""Point""}";49.2632995162305, -123.109875854161
25;4678802;25-159989;00;Adera Facilities Inc;;Issued;2024-12-09T09:56:40-08:00;2025-12-31;Consulting and Management Services;;1880;Unit;320;GRANVILLE ST;Vancouver;BC;CA;V6C 1S9;Downtown;3.0;265.0;2025-03-02T00:09:36-08:00;"{""coordinates"": [-123.112846584406, 49.2855733472828], ""type"": ""Point""}";49.2855733472828, -123.112846584406
25;4678815;25-160002;00;(Lindsay Luttrell);Wavelength Global Immigration Services;Issued;2024-12-08T12:56:43-08:00;2025-12-31;Consulting and Management Services;;;;;;Vancouver;BC;;;Kensington-Cedar Cottage;1.0;265.0;2025-03-02T00:09:36-08:00;;
25;4678822;25-160009;00;PANEVO SERVICES LIMITED;;Issued;2024-12-12T11:28:46-08:00;2025-12-31;Consulting and Management Services;;910;Unit;525;SEYMOUR ST;Vancouver;BC;;V6B 3H7;Downtown;9.0;265.0;2025-03-02T00:09:36-08:00;"{""coordinates"": [-123.114768826392, 49.2837724104188], ""type"": ""Point""}";49.2837724104188, -123.114768826392
25;4646704;25-138981;00;London Mah & Associates Ltd;;Issued;2024-12-13T17:41:35-08:00;2025-12-31;Consulting and Management Services;;103;Unit;1847;W BROADWAY;Vancouver;BC;CA;V6J 5E8;Kitsilano;15.0;265.0;2025-03-02T00:09:35-08:00;"{""coordinates"": [-123.146636877346, 49.2640249662308], ""type"": ""Point""}";49.2640249662308, -123.146636877346
25;4646721;25-138998;00;(Tomio Suzuki);Suzuki Trading & Business Consulting;Issued;2024-12-22T19:03:15-08:00;2025-12-31;Consulting and Management Services;;518;Unit;938;Howe St;Vancouver;BC;CA;V6Z 1N9;Downtown;1.0;265.0;2025-03-02T00:09:35-08:00;"{""coordinates"": [-123.122835857511, 49.2803098063228], ""type"": ""Point""}";49.2803098063228, -123.122835857511
25;4646743;25-139020;00;Shangkuan Holdings (Canada) Inc;Shangkuan Immigration & Business Consultants;Issued;2024-12-31T20:02:35-08:00;2025-12-31;Consulting and Management Services;;;;1993;E 51ST AV;Vancouver;BC;CA;V5P 1W1;Victoria-Fraserview;5.0;265.0;2025-03-02T00:09:35-08:00;"{""coordinates"": [-123.066174459925, 49.2236031192701], ""type"": ""Point""}";49.2236031192701, -123.066174459925
25;4646762;25-139039;00;Solguard Financial Ltd;Solguard Financial;Issued;2024-12-11T09:16:48-08:00;2025-12-31;Consulting and Management Services;;1100;Unit;1075;W GEORGIA ST;Vancouver;BC;CA;V6E 3C9;Downtown;7.0;265.0;2025-03-02T00:09:35-08:00;"{""coordinates"": [-123.122189505874, 49.2858641494082], ""type"": ""Point""}";49.2858641494082, -123.122189505874
25;4646768;25-139045;00;Francis R Roe & Doreen C Roe;Comfortzones Marketing Consultancy;Issued;2024-12-31T14:58:14-08:00;2025-12-31;Consulting and Management Services;;;;;;Vancouver;BC;CA;;Downtown;2.0;265.0;2025-03-02T00:09:35-08:00;;
25;4646771;25-139048;00;RLM Learning Innovations Inc;;Issued;2024-12-18T17:07:42-08:00;2025-12-31;Consulting and Management Services;;;;;;Vancouver;BC;CA;;Kitsilano;1.0;265.0;2025-03-02T00:09:35-08:00;;
25;4646774;25-139051;00;RCI Capital Group Inc;;Issued;2024-12-03T16:32:43-08:00;2025-12-31;Consulting and Management Services;;2184;Unit;1055;DUNSMUIR ST;Vancouver;BC;CA;V7X 1L3;Downtown;6.0;265.0;2025-03-02T00:09:35-08:00;"{""coordinates"": [-123.120915798954, 49.2865514070226], ""type"": ""Point""}";49.2865514070226, -123.120915798954
25;4646778;25-139055;00;Joni Mar & Associates Professional Coaches Inc;;Issued;2024-12-29T18:44:19-08:00;2025-12-31;Consulting and Management Services;;;;;;Vancouver;BC;CA;;South Cambie;2.0;265.0;2025-03-02T00:09:35-08:00;;
25;4646780;25-139057;00;Jun Yee Ing & Jacqueline Ing;Teaming Solutions;Issued;2024-12-15T20:08:07-08:00;2025-12-31;Consulting and Management Services;;;;;;Vancouver;BC;CA;;Riley Park;0.0;265.0;2025-03-02T00:09:35-08:00;;
25;4646784;25-139061;00;John Howard Baker (John Baker);Shift Consulting;Issued;2024-12-02T15:13:41-08:00;2025-12-31;Consulting and Management Services;;;;;;Vancouver;BC;CA;;Grandview-Woodland;1.0;265.0;2025-03-02T00:09:35-08:00;;
25;4646785;25-139062;00;RM Marketing Ltd;;Issued;2024-12-31T20:17:51-08:00;2025-12-31;Consulting and Management Services;;;;;;Vancouver;BC;CA;;Downtown;2.0;265.0;2025-03-02T00:09:35-08:00;;
25;4646791;25-139068;00;Chalkline Design & Consulting Ltd;;Issued;2024-12-15T12:37:00-08:00;2025-12-31;Consulting and Management Services;;;;;;Vancouver;BC;CA;;Oakridge;2.0;265.0;2025-03-02T00:09:35-08:00;;
25;4646816;25-139093;00;L M D G Building Code Consultants Ltd;;Issued;2024-12-02T06:59:26-08:00;2025-12-31;Consulting and Management Services;;400;Unit;780;BEATTY ST;Vancouver;BC;CA;V6B 2M1;Downtown;48.0;265.0;2025-03-02T00:09:35-08:00;"{""coordinates"": [-123.113197005452, 49.2777389060813], ""type"": ""Point""}";49.2777389060813, -123.113197005452
25;4646823;25-139100;00;Iwa Scholastic Group Inc;;Issued;2024-12-19T18:36:46-08:00;2025-12-31;Consulting and Management Services;;;;;;Vancouver;BC;CA;;Marpole;1.0;265.0;2025-03-02T00:09:35-08:00;;
25;4646829;25-139106;00;Chien Ju Chang (Chien Chang);Taste For Life Consulting;Issued;2024-12-06T02:03:58-08:00;2025-12-31;Consulting and Management Services;;;;;;Vancouver;BC;CA;;West Point Grey;1.0;265.0;2025-03-02T00:09:35-08:00;;
25;4646840;25-139117;00;Zena Simces & Associates Inc;;Issued;2024-12-10T11:37:08-08:00;2025-12-31;Consulting and Management Services;;;;;;Vancouver;BC;CA;;Dunbar-Southlands;0.0;265.0;2025-03-02T00:09:35-08:00;;
25;4646846;25-139123;00;Bob's Your Uncle Design Ltd;;Issued;2024-12-12T14:07:10-08:00;2025-12-31;Consulting and Management Services;;;;973;E HASTINGS ST;Vancouver;BC;CA;V6A 0H1;Strathcona;16.0;265.0;2025-03-02T00:09:35-08:00;"{""coordinates"": [-123.083454873773, 49.2813275835791], ""type"": ""Point""}";49.2813275835791, -123.083454873773
25;4646852;25-139129;00;(Jasjit Rai);Joi Works Consulting;Issued;2024-12-24T11:55:50-08:00;2025-12-31;Consulting and Management Services;;;;;;Vancouver;BC;CA;;Downtown;1.0;265.0;2025-03-02T00:09:35-08:00;;
25;4646853;25-139130;00;White Box Design Inc;;Issued;2024-12-19T14:29:44-08:00;2025-12-31;Consulting and Management Services;;103;Unit;4338;MAIN ST;Vancouver;BC;CA;V5V 3P9;Riley Park;5.0;265.0;2025-03-02T00:09:35-08:00;"{""coordinates"": [-123.100852526433, 49.2462011758838], ""type"": ""Point""}";49.2462011758838, -123.100852526433
25;4646858;25-139135;00;GYW Systems Consulting Limited;;Issued;2024-12-20T14:07:09-08:00;2025-12-31;Consulting and Management Services;;;;;;Vancouver;BC;CA;;Downtown;1.0;265.0;2025-03-02T00:09:35-08:00;;
25;4646887;25-139164;00;The Refinery Leadership Partners Inc;;Issued;2024-12-10T09:39:16-08:00;2025-12-31;Consulting and Management Services;;532;Unit;470;GRANVILLE ST;Vancouver;BC;CA;V6C 1V5;Downtown;11.0;265.0;2025-03-02T00:09:35-08:00;"{""coordinates"": [-123.114441013341, 49.2847316480809], ""type"": ""Point""}";49.2847316480809, -123.114441013341
25;4646923;25-139200;00;ACG Alpine Consulting Group Inc;;Issued;2024-12-10T11:42:27-08:00;2025-12-31;Consulting and Management Services;;300;Unit;1275;W 6TH AV;Vancouver;BC;CA;V6H 1A6;Fairview;2.0;265.0;2025-03-02T00:09:35-08:00;"{""coordinates"": [-123.133064428914, 49.2663820185595], ""type"": ""Point""}";49.2663820185595, -123.133064428914
25;4646929;25-139206;00;Darby Jing Da Huang (Darby Huang);Illinois Institute Of Education;Issued;2024-12-27T13:08:17-08:00;2025-12-31;Consulting and Management Services;;;;;;Vancouver;BC;CA;;Strathcona;1.0;265.0;2025-03-02T00:09:35-08:00;;
25;4646946;25-139223;00;(Kevin Smith);Smith * Visuals;Issued;2024-12-27T09:24:03-08:00;2025-12-31;Consulting and Management Services;;;;;;Vancouver;BC;CA;;West End;1.0;265.0;2025-03-02T00:09:35-08:00;;
25;4646955;25-139232;00;Orvin Consulting Inc;;Issued;2024-12-17T23:20:13-08:00;2025-12-31;Consulting and Management Services;;;;;;Vancouver;BC;CA;;Riley Park;1.0;265.0;2025-03-02T00:09:35-08:00;;
25;4646965;25-139242;00;(Nazli Mohajer);Mohajer Immigration Consulting;Issued;2024-12-09T18:31:58-08:00;2025-12-31;Consulting and Management Services;;;;;;Vancouver;BC;CA;;Downtown;1.0;265.0;2025-03-02T00:09:35-08:00;;
25;4646991;25-139268;00;Advantage Systems Management Corp;;Issued;2024-12-19T19:08:48-08:00;2025-12-31;Consulting and Management Services;;;;;;Vancouver;BC;CA;;South Cambie;2.0;265.0;2025-03-02T00:09:35-08:00;;
25;4646994;25-139271;00;RCI Capital Group (Canada) Inc;;Issued;2024-12-03T16:37:34-08:00;2025-12-31;Consulting and Management Services;;2184;Unit;1055;DUNSMUIR ST;Vancouver;BC;CA;V7X 1L3;Downtown;1.0;265.0;2025-03-02T00:09:35-08:00;"{""coordinates"": [-123.120915798954, 49.2865514070226], ""type"": ""Point""}";49.2865514070226, -123.120915798954
25;4647002;25-139279;00;Tyro Industries Corp;;Issued;2024-12-19T08:53:55-08:00;2025-12-31;Consulting and Management Services;;;;;;Vancouver;BC;CA;;West End;0.0;265.0;2025-03-02T00:09:35-08:00;;
25;4647013;25-139290;00;Symbiaudit Sustainability Consultants Inc;SymbiAudit;Issued;2024-12-29T18:44:59-08:00;2025-12-31;Consulting and Management Services;;;;;;Vancouver;BC;CA;;Kensington-Cedar Cottage;1.0;265.0;2025-03-02T00:09:35-08:00;;
25;4647014;25-139291;00;Joanna Mary Kinsey Muir (Joanna Muir);Dear Piggy Bank Financial Services;Issued;2024-12-07T08:57:00-08:00;2025-12-31;Consulting and Management Services;;;;;;Vancouver;BC;CA;;Fairview;0.0;265.0;2025-03-02T00:09:35-08:00;;
25;4647028;25-139305;00;Genex Diagnostics Inc;;Issued;2024-12-30T23:08:58-08:00;2025-12-31;Consulting and Management Services;;320;Unit;2806;KINGSWAY;Vancouver;BC;CA;V5R 5T5;Renfrew-Collingwood;5.0;265.0;2025-03-02T00:09:35-08:00;"{""coordinates"": [-123.047166533903, 49.2364676735503], ""type"": ""Point""}";49.2364676735503, -123.047166533903
25;4647029;25-139306;00;The Summit Group Business Consultants Ltd;The Summit Group;Issued;2024-12-19T09:59:49-08:00;2025-12-31;Consulting and Management Services;;300;Unit;1055;W HASTINGS ST;Vancouver;BC;CA;V6E 2E9;Downtown;2.0;265.0;2025-03-02T00:09:35-08:00;"{""coordinates"": [-123.118192793095, 49.2877342016388], ""type"": ""Point""}";49.2877342016388, -123.118192793095
25;4647038;25-139315;00;Choice Communication (Canada) Ltd;;Issued;2024-12-27T13:00:09-08:00;2025-12-31;Consulting and Management Services;;701;Unit;938;HOWE ST;Vancouver;BC;CA;V6Z 1N9;Downtown;3.0;265.0;2025-03-02T00:09:35-08:00;"{""coordinates"": [-123.122835857511, 49.2803098063228], ""type"": ""Point""}";49.2803098063228, -123.122835857511
25;4647045;25-139322;00;Pacific Premiere Consulting Group (Canada) Ltd;;Issued;2024-12-16T10:06:52-08:00;2025-12-31;Consulting and Management Services;;1500;Unit;701;W GEORGIA ST;Vancouver;BC;CA;V7Y 1C6;Downtown;1.0;265.0;2025-03-02T00:09:35-08:00;"{""coordinates"": [-123.117751286267, 49.2834005265727], ""type"": ""Point""}";49.2834005265727, -123.117751286267
25;4647047;25-139324;00;Virtus Interactive Business Learning Experience Inc;;Issued;2024-12-02T13:04:55-08:00;2025-12-31;Consulting and Management Services;;;;;;Vancouver;BC;CA;;Downtown;8.0;265.0;2025-03-02T00:09:35-08:00;;
25;4647058;25-139335;00;Elastic Path Software Inc;;Issued;2024-12-10T10:42:32-08:00;2025-12-31;Consulting and Management Services;;408;Unit;55;WATER ST;Vancouver;BC;CA;V6B 1A1;Downtown;57.0;265.0;2025-03-02T00:09:35-08:00;"{""coordinates"": [-123.105433984455, 49.2839824189482], ""type"": ""Point""}";49.2839824189482, -123.105433984455
25;4647060;25-139337;00;Maiko Robelle Behr (Maiko Behr);Maiko Behr Japanese Art Consulting & Translation Services;Issued;2024-12-22T22:41:12-08:00;2025-12-31;Consulting and Management Services;;;;;;Vancouver;BC;CA;;Fairview;1.0;265.0;2025-03-02T00:09:35-08:00;;
25;4647072;25-139349;00;Impactuate Consulting Inc;;Issued;2024-12-22T07:41:25-08:00;2025-12-31;Consulting and Management Services;;;;;;Vancouver;BC;CA;;Arbutus-Ridge;2.0;265.0;2025-03-02T00:09:35-08:00;;
25;4647087;25-139364;00;(Rohit Sreelatha);AIM Solar;Issued;2024-12-27T18:22:45-08:00;2025-12-31;Consulting and Management Services;;;;;;Vancouver;BC;CA;;West Point Grey;0.0;265.0;2025-03-02T00:09:35-08:00;;
25;4647090;25-139367;00;Banh & Associates Immigration Services Inc;;Issued;2024-12-31T21:57:09-08:00;2025-12-31;Consulting and Management Services;;;;;;Vancouver;BC;CA;;Renfrew-Collingwood;2.0;265.0;2025-03-02T00:09:35-08:00;;
25;4647103;25-139380;00;Fever Pitch Marketing Communications Inc;Fever Pitch Marketing Communications;Issued;2024-12-30T12:04:43-08:00;2025-12-31;Consulting and Management Services;;313;Unit;630;E BROADWAY;Vancouver;BC;CA;V5T 1X6;Mount Pleasant;1.0;265.0;2025-03-02T00:09:35-08:00;"{""coordinates"": [-123.090364552263, 49.2621713336893], ""type"": ""Point""}";49.2621713336893, -123.090364552263
25;4647107;25-139384;00;(Steffany Alden);Alden Consulting;Issued;2024-12-31T10:09:28-08:00;2025-12-31;Consulting and Management Services;;;;;;Vancouver;BC;CA;;Fairview;1.0;265.0;2025-03-02T00:09:35-08:00;;
25;4647112;25-139389;00;GHD Limited;;Issued;2024-12-13T11:03:42-08:00;2025-12-31;Consulting and Management Services;;100;Unit;138;E 7TH AV;Vancouver;BC;CA;V5T 1M6;Mount Pleasant;60.0;565.0;2025-03-02T00:09:35-08:00;"{""coordinates"": [-123.101849444003, 49.2643549287062], ""type"": ""Point""}";49.2643549287062, -123.101849444003
25;4647118;25-139395;00;Donna Catherine Clarke (Donna Clarke);The Joy of Style;Issued;2024-12-17T08:51:45-08:00;2025-12-31;Consulting and Management Services;;;;;;Vancouver;BC;CA;;West End;1.0;265.0;2025-03-02T00:09:35-08:00;;
25;4647124;25-139401;00;Satel Enterprises Ltd;;Issued;2024-12-31T11:59:38-08:00;2025-12-31;Consulting and Management Services;;300;Unit;1275;W 6TH AV;Vancouver;BC;CA;V6H 1A6;Fairview;13.0;265.0;2025-03-02T00:09:35-08:00;"{""coordinates"": [-123.133064428914, 49.2663820185595], ""type"": ""Point""}";49.2663820185595, -123.133064428914
25;4647143;25-139420;00;(Manling Zhang);;Issued;2024-12-20T10:44:05-08:00;2025-12-31;Consulting and Management Services;;;;;;Vancouver;BC;CA;;West End;1.0;265.0;2025-03-02T00:09:35-08:00;;
25;4647152;25-139429;00;Tripletree Investment Ltd;Waylink C;Issued;2024-12-10T13:51:43-08:00;2025-12-31;Consulting and Management Services;;40;Unit;22;E 5TH AV;Vancouver;BC;CA;V5T 1G8;Mount Pleasant;4.0;265.0;2025-03-02T00:09:35-08:00;"{""coordinates"": [-123.104305356489, 49.2662134404944], ""type"": ""Point""}";49.2662134404944, -123.104305356489
25;4647153;25-139430;00;Siu Yuen Lee;Sysil Group;Issued;2024-12-31T23:49:34-08:00;2025-12-31;Consulting and Management Services;;;;;;Vancouver;BC;CA;;Riley Park;1.0;265.0;2025-03-02T00:09:35-08:00;;
25;4647165;25-139442;00;(Pamela Schmidt);Pam Schmidt Coaching & Consulting;Issued;2024-12-27T13:02:03-08:00;2025-12-31;Consulting and Management Services;;;;;;Vancouver;BC;CA;;West End;1.0;265.0;2025-03-02T00:09:35-08:00;;
25;4647173;25-139450;00;(Yuri Taira);Shine Canada;Issued;2024-12-28T15:05:04-08:00;2025-12-31;Consulting and Management Services;;601;Unit;2181;W 38TH AV;Vancouver;BC;CA;V6M 1R8;Arbutus-Ridge;1.0;265.0;2025-03-02T00:09:35-08:00;"{""coordinates"": [-123.15792669952, 49.2376402944942], ""type"": ""Point""}";49.2376402944942, -123.15792669952
25;4647182;25-139459;00;Gobinder Gill Diversity Training Inc;;Issued;2024-12-26T10:54:50-08:00;2025-12-31;Consulting and Management Services;;;;;;Vancouver;BC;CA;;Riley Park;1.0;265.0;2025-03-02T00:09:35-08:00;;
25;4647209;25-139486;00;Multintel Education & Publishing Ltd;Multintel Education;Issued;2024-12-31T19:39:07-08:00;2025-12-31;Consulting and Management Services;;205;Unit;2052;W 41ST AV;Vancouver;BC;CA;V6M 1Y8;Kerrisdale;3.0;265.0;2025-03-02T00:09:35-08:00;"{""coordinates"": [-123.153799508839, 49.2342458465492], ""type"": ""Point""}";49.2342458465492, -123.153799508839
25;4647216;25-139493;00;Turner & Townsend Canada Inc.;Turner & Townsend;Issued;2024-12-16T09:42:57-08:00;2025-12-31;Consulting and Management Services;;2060;Unit;555;W HASTINGS ST;Vancouver;BC;CA;V6B 4N6;Downtown;30.0;265.0;2025-03-02T00:09:35-08:00;"{""coordinates"": [-123.111888756655, 49.2846829470474], ""type"": ""Point""}";49.2846829470474, -123.111888756655
25;4647228;25-139505;00;Eric A Mazzi (Eric Mazzi);Mazzi Consulting Services;Issued;2024-12-31T21:33:45-08:00;2025-12-31;Consulting and Management Services;;;;;;Vancouver;BC;CA;;Dunbar-Southlands;1.0;265.0;2025-03-02T00:09:35-08:00;;
25;4647231;25-139508;00;Sheung Man Lois Pedley (Sheung Pedley);;Issued;2024-12-02T10:13:03-08:00;2025-12-31;Consulting and Management Services;;;;;;Vancouver;BC;CA;;;1.0;265.0;2025-03-02T00:09:35-08:00;;
25;4647266;25-139543;00;Lucas Ludovico Mattiello (Lucas Mattiello);Level Up Living;Issued;2024-12-10T12:55:39-08:00;2025-12-31;Consulting and Management Services;;;;;;Vancouver;BC;CA;;West End;1.0;265.0;2025-03-02T00:09:35-08:00;;
25;4647284;25-139561;00;Jasper A Anson (Jasper Anson);NovaCurrent Public Relations;Issued;2024-12-24T12:27:49-08:00;2025-12-31;Consulting and Management Services;;;;;;Vancouver;BC;CA;;Kitsilano;1.0;265.0;2025-03-02T00:09:35-08:00;;
25;4647288;25-139565;00;Dominic Matoto Meneses (Dominic Meneses);JC Elijah Migration Group & Associates;Issued;2024-12-12T11:09:08-08:00;2025-12-31;Consulting and Management Services;;300;Unit;3665;KINGSWAY;Vancouver;BC;CA;V5R 5W2;Renfrew-Collingwood;1.0;265.0;2025-03-02T00:09:35-08:00;"{""coordinates"": [-123.02419552672, 49.2326670344327], ""type"": ""Point""}";49.2326670344327, -123.02419552672
25;4647296;25-139573;00;Optima Risk Consulting Ltd;;Issued;2024-12-03T14:01:30-08:00;2025-12-31;Consulting and Management Services;;1215;Unit;650;W GEORGIA ST;Vancouver;BC;CA;V6B 4N9;Downtown;1.0;265.0;2025-03-02T00:09:35-08:00;"{""coordinates"": [-123.117897724969, 49.2818316993831], ""type"": ""Point""}";49.2818316993831, -123.117897724969
25;4647315;25-139592;00;Aureola Trading Ltd;;Issued;2024-12-09T08:11:46-08:00;2025-12-31;Consulting and Management Services;;;;;;Vancouver;BC;CA;;Victoria-Fraserview;1.0;265.0;2025-03-02T00:09:35-08:00;;
25;4647335;25-139612;00;Amy Jane Stanley (Amy Stanley);Leading Light Executive Coaching;Issued;2024-12-08T08:21:38-08:00;2025-12-31;Consulting and Management Services;;;;;;Vancouver;BC;CA;;Kensington-Cedar Cottage;1.0;265.0;2025-03-02T00:09:35-08:00;;
25;4647348;25-139625;00;Classmethod Canada Inc;;Issued;2024-12-27T16:06:08-08:00;2025-12-31;Consulting and Management Services;;1600;Unit;555;BURRARD ST;Vancouver;BC;CA;V7X 1M8;Downtown;6.0;265.0;2025-03-02T00:09:35-08:00;"{""coordinates"": [-123.118959746657, 49.2865570713147], ""type"": ""Point""}";49.2865570713147, -123.118959746657
25;4647367;25-139644;00;Femme Sauvage Collective Inc;;Issued;2024-12-05T12:29:24-08:00;2025-12-31;Consulting and Management Services;;;;;;Vancouver;BC;CA;;Downtown;1.0;265.0;2025-03-02T00:09:35-08:00;;
25;4647374;25-139651;00;Strategic Income Security Services (N) Ltd;;Issued;2024-12-11T15:16:48-08:00;2025-12-31;Consulting and Management Services;;M2;Unit;601;W BROADWAY;Vancouver;BC;CA;V5Z 4C2;Fairview;3.0;265.0;2025-03-02T00:09:35-08:00;"{""coordinates"": [-123.118596122757, 49.2635657969344], ""type"": ""Point""}";49.2635657969344, -123.118596122757
25;4647379;25-139656;00;Altron Engineering Inc;;Issued;2024-12-28T11:43:59-08:00;2025-12-31;Consulting and Management Services;;;;;;Vancouver;BC;CA;;Killarney;2.0;265.0;2025-03-02T00:09:35-08:00;;
25;4647384;25-139661;00;WCC Crane Solutions Inc;;Issued;2024-12-21T10:37:41-08:00;2025-12-31;Consulting and Management Services;;;;1496;W 72ND AV;Vancouver;BC;CA;V6P 3C8;Marpole;2.0;265.0;2025-03-02T00:09:35-08:00;"{""coordinates"": [-123.140246281014, 49.2056285143967], ""type"": ""Point""}";49.2056285143967, -123.140246281014
25;4647398;25-139675;00;Evergreen Quantity Surveyors Inc;Cost Consulting Services;Issued;2024-12-21T14:04:13-08:00;2025-12-31;Consulting and Management Services;;;;;;Vancouver;BC;CA;;Marpole;1.0;265.0;2025-03-02T00:09:35-08:00;;
25;4647399;25-139676;00;Preview Art Media Inc;;Issued;2024-12-05T00:10:27-08:00;2025-12-31;Consulting and Management Services;;;;;;Vancouver;BC;CA;;West Point Grey;1.0;265.0;2025-03-02T00:09:35-08:00;;
25;4647439;25-139716;00;Cody Akira Belton (Cody Belton);Akira Living;Issued;2024-12-31T15:45:36-08:00;2025-12-31;Consulting and Management Services;;;;;;Vancouver;BC;CA;;Shaughnessy;1.0;265.0;2025-03-02T00:09:35-08:00;;
25;4647441;25-139718;00;Sunbridge International Project Development Inc;;Issued;2024-12-25T13:36:37-08:00;2025-12-31;Consulting and Management Services;;;;;;Vancouver;BC;CA;;Killarney;1.0;265.0;2025-03-02T00:09:35-08:00;;
25;4647451;25-139728;00;ES Trading & Research Ltd;;Issued;2024-12-27T18:32:47-08:00;2025-12-31;Consulting and Management Services;;;;;;Vancouver;BC;CA;;Arbutus-Ridge;2.0;265.0;2025-03-02T00:09:35-08:00;;
25;4647453;25-139730;00;Dyslexia Bright Solutions (Canada) Inc;;Issued;2024-12-20T16:46:05-08:00;2025-12-31;Consulting and Management Services;;800;Unit;1199;W HASTINGS ST;Vancouver;BC;CA;V6E 3T5;Downtown;1.0;265.0;2025-03-02T00:09:35-08:00;"{""coordinates"": [-123.122218569777, 49.2889218016672], ""type"": ""Point""}";49.2889218016672, -123.122218569777
25;4647455;25-139732;00;SSA Recruitment Ltd;SSA Group;Issued;2024-12-02T13:36:10-08:00;2025-12-31;Consulting and Management Services;;110;Unit;1228;HOMER ST;Vancouver;BC;CA;V6B 2Y5;Downtown;4.0;265.0;2025-03-02T00:09:35-08:00;"{""coordinates"": [-123.123540781819, 49.2747059810324], ""type"": ""Point""}";49.2747059810324, -123.123540781819
25;4647482;25-139759;00;One-Eighty Consulting Group Inc;;Issued;2024-12-06T15:55:14-08:00;2025-12-31;Consulting and Management Services;;300;Unit;1168;HAMILTON ST;Vancouver;BC;CA;V6B 2S2;Downtown;16.0;265.0;2025-03-02T00:09:35-08:00;"{""coordinates"": [-123.121996984635, 49.2750076198637], ""type"": ""Point""}";49.2750076198637, -123.121996984635
25;4647500;25-139777;00;UNA Network Solutions Inc;;Issued;2024-12-04T15:50:34-08:00;2025-12-31;Consulting and Management Services;;500;Unit;666;BURRARD ST;Vancouver;BC;CA;V6C 2X8;Downtown;3.0;265.0;2025-03-02T00:09:35-08:00;"{""coordinates"": [-123.119358394194, 49.2850670237956], ""type"": ""Point""}";49.2850670237956, -123.119358394194
25;4647506;25-139783;00;(Hui Chen);H&C Int'l Consultant Co;Issued;2024-12-30T23:01:59-08:00;2025-12-31;Consulting and Management Services;;;;;;Vancouver;BC;CA;;Arbutus-Ridge;1.0;265.0;2025-03-02T00:09:35-08:00;;
25;4647522;25-139799;00;1160903 BC Ltd;;Issued;2024-12-30T08:10:06-08:00;2025-12-31;Consulting and Management Services;;;;;;Vancouver;BC;CA;;UBC;1.0;265.0;2025-03-02T00:09:35-08:00;;
25;4647533;25-139810;00;Dale R Cameron (Dale Cameron);West Coast Chemistry Services;Issued;2024-12-24T15:21:25-08:00;2025-12-31;Consulting and Management Services;;;;;;Vancouver;BC;CA;;Killarney;1.0;265.0;2025-03-02T00:09:35-08:00;;
25;4647541;25-139818;00;Tiny Talkers Autism Services Inc;;Issued;2024-12-17T10:55:34-08:00;2025-12-31;Consulting and Management Services;;;;;;Vancouver;BC;CA;;Mount Pleasant;1.0;265.0;2025-03-02T00:09:35-08:00;;
25;4647558;25-139835;00;Surya Energy Consulting Inc;Surya Energy Consulting;Issued;2024-12-02T20:19:13-08:00;2025-12-31;Consulting and Management Services;;300;Unit;420;W HASTINGS ST;Vancouver;BC;CA;V6B 1L1;Downtown;1.0;265.0;2025-03-02T00:09:35-08:00;"{""coordinates"": [-123.111684741885, 49.2834962131883], ""type"": ""Point""}";49.2834962131883, -123.111684741885
25;4647560;25-139837;00;Strata Geodata Services Ltd;Strata GeoData Services;Issued;2024-12-12T12:10:54-08:00;2025-12-31;Consulting and Management Services;;330;Unit;470;GRANVILLE ST;Vancouver;BC;CA;V6C 1V5;Downtown;14.0;265.0;2025-03-02T00:09:35-08:00;"{""coordinates"": [-123.114441013341, 49.2847316480809], ""type"": ""Point""}";49.2847316480809, -123.114441013341
25;4647583;25-139860;00;The Laurel Hill Advisory Group Company;;Issued;2024-12-09T10:12:37-08:00;2025-12-31;Consulting and Management Services;;710;Unit;580;HORNBY ST;Vancouver;BC;CA;V6C 3B6;Downtown;1.0;265.0;2025-03-02T00:09:35-08:00;"{""coordinates"": [-123.11754746904, 49.2850842079267], ""type"": ""Point""}";49.2850842079267, -123.11754746904
25;4647603;25-139880;00;5G Continuous Improvement Connection Corp;;Issued;2024-12-22T22:16:47-08:00;2025-12-31;Consulting and Management Services;;;;;;Vancouver;BC;CA;;Renfrew-Collingwood;1.0;265.0;2025-03-02T00:09:35-08:00;;
25;4647668;25-139945;00;Complex Projects Consulting Inc;;Issued;2024-12-23T12:42:48-08:00;2025-12-31;Consulting and Management Services;;;;;;Vancouver;BC;CA;;Hastings-Sunrise;1.0;265.0;2025-03-02T00:09:35-08:00;;
25;4647680;25-139957;00;Wily Knight Productions Inc;;Issued;2024-12-30T12:05:31-08:00;2025-12-31;Consulting and Management Services;;;;;;Vancouver;BC;CA;;Kitsilano;2.0;265.0;2025-03-02T00:09:35-08:00;;
25;4647688;25-139965;00;(Ali Goharjoo);Boostertek Online Co;Issued;2024-12-19T19:24:16-08:00;2025-12-31;Consulting and Management Services;;;;;;Vancouver;BC;CA;;Kitsilano;1.0;265.0;2025-03-02T00:09:35-08:00;;
25;4647695;25-139972;00;Naz Learning Center Ltd;;Issued;2024-12-09T16:20:04-08:00;2025-12-31;Consulting and Management Services;;;;6428;Main St;Vancouver;BC;CA;V5W 2V4;Sunset;3.0;265.0;2025-03-02T00:09:35-08:00;"{""coordinates"": [-123.101212583634, 49.2263238623763], ""type"": ""Point""}";49.2263238623763, -123.101212583634
25;4647707;25-139984;00;SFPM Consulting Inc;;Inactive;2024-12-20T09:29:24-08:00;2025-12-31;Consulting and Management Services;;210;Unit;128;W HASTINGS ST;Vancouver;BC;CA;V6B 1G8;Downtown;1.0;265.0;2025-03-02T00:09:35-08:00;"{""coordinates"": [-123.108413374474, 49.2819153321785], ""type"": ""Point""}";49.2819153321785, -123.108413374474
25;4647723;25-140000;00;Bjarne Tokerud Bookseller Inc;;Issued;2024-12-19T13:36:09-08:00;2025-12-31;Consulting and Management Services;;512;Unit;470;GRANVILLE ST;Vancouver;BC;CA;V6C 1V5;Downtown;1.0;265.0;2025-03-02T00:09:35-08:00;"{""coordinates"": [-123.114441013341, 49.2847316480809], ""type"": ""Point""}";49.2847316480809, -123.114441013341
25;4647731;25-140008;00;(Alix Wadeson);Alix Wadeson Consulting;Issued;2024-12-16T14:06:18-08:00;2025-12-31;Consulting and Management Services;;;;;;Vancouver;BC;CA;;Renfrew-Collingwood;1.0;265.0;2025-03-02T00:09:35-08:00;;
25;4647799;25-140076;00;Tiffany F Hilman (Tiffany Hilman);Tiffany Hilman Consulting;Issued;2024-12-02T10:33:50-08:00;2025-12-31;Consulting and Management Services;;;;;;Vancouver;BC;CA;;Mount Pleasant;1.0;265.0;2025-03-02T00:09:35-08:00;;
25;4647805;25-140082;00;(Gongjin Chen);;Issued;2024-12-23T09:51:44-08:00;2025-12-31;Consulting and Management Services;;;;;;Vancouver;BC;CA;;Downtown;1.0;265.0;2025-03-02T00:09:35-08:00;;
25;4647818;25-140095;00;Fintools Software Ltd;;Issued;2024-12-02T11:12:24-08:00;2025-12-31;Consulting and Management Services;;;;;;Vancouver;BC;CA;;Kensington-Cedar Cottage;1.0;265.0;2025-03-02T00:09:35-08:00;;
25;4647851;25-140128;00;Deanne M Brunelle (Deanne Brunelle);;Issued;2024-12-16T11:53:14-08:00;2025-12-31;Consulting and Management Services;;;;;;Vancouver;BC;CA;;West End;1.0;265.0;2025-03-02T00:09:35-08:00;;
25;4647869;25-140146;00;YVR Aesthetic Training And Study Centre Inc;;Issued;2024-12-17T17:43:54-08:00;2025-12-31;Consulting and Management Services;;517;Unit;750;W BROADWAY;Vancouver;BC;CA;V5Z 1H2;Fairview;3.0;265.0;2025-03-02T00:09:35-08:00;"{""coordinates"": [-123.121054317485, 49.2630145309513], ""type"": ""Point""}";49.2630145309513, -123.121054317485
25;4647873;25-140150;00;Margo C Metcalfe (Margo Metcalfe);;Issued;2024-12-23T10:00:28-08:00;2025-12-31;Consulting and Management Services;;;;;;Vancouver;BC;CA;;Mount Pleasant;1.0;265.0;2025-03-02T00:09:35-08:00;;
25;4647878;25-140155;00;Jones Consulting Inc;Jones Consulting;Issued;2024-12-04T16:30:17-08:00;2025-12-31;Consulting and Management Services;;;;;;Vancouver;BC;CA;;Kensington-Cedar Cottage;1.0;768.0;2025-03-02T00:09:35-08:00;;
25;4647888;25-140165;00;(Lindsay Farrell);Skoden Consulting;Gone Out of Business;2024-12-27T10:29:57-08:00;2025-12-31;Consulting and Management Services;;;;;;Vancouver;BC;CA;;West End;1.0;265.0;2025-03-02T00:09:35-08:00;;
25;4647928;25-140205;00;Channelshift Media Inc;;Issued;2024-12-01T11:29:11-08:00;2025-12-31;Consulting and Management Services;;;;;;Vancouver;BC;CA;;Downtown;1.0;265.0;2025-03-02T00:09:35-08:00;;
25;4647941;25-140218;00;Twinway GLobal Immigration Consulting Inc;;Issued;2024-12-29T21:18:11-08:00;2025-12-31;Consulting and Management Services;;250;Unit;997;SEYMOUR ST;Vancouver;BC;CA;V6B 3M`;Downtown;1.0;265.0;2025-03-02T00:09:35-08:00;"{""coordinates"": [-123.122056018925, 49.2789639460617], ""type"": ""Point""}";49.2789639460617, -123.122056018925
25;4647950;25-140227;00;Orcarecon Inc;;Issued;2024-12-24T17:34:36-08:00;2025-12-31;Consulting and Management Services;;;;;;Vancouver;BC;CA;;West End;1.0;265.0;2025-03-02T00:09:35-08:00;;
25;4647961;25-140238;00;Emilie C Thomas;;Issued;2024-12-31T16:19:35-08:00;2025-12-31;Consulting and Management Services;;;;;;Vancouver;BC;CA;;Kerrisdale;1.0;265.0;2025-03-02T00:09:35-08:00;;
25;4647976;25-140253;00;(Aleksandar Cecur );Archedom Systems;Issued;2024-12-31T05:51:07-08:00;2025-12-31;Consulting and Management Services;;;;;;Vancouver;BC;CA;;Downtown;1.0;265.0;2025-03-02T00:09:35-08:00;;
25;4648001;25-140278;00;(Brittni Arthur);Snap Consulting;Issued;2024-12-20T09:54:10-08:00;2025-12-31;Consulting and Management Services;;300;Unit;420;W HASTINGS ST;Vancouver;BC;CA;V6B 1L1;Downtown;1.0;265.0;2025-03-02T00:09:35-08:00;"{""coordinates"": [-123.111684741885, 49.2834962131883], ""type"": ""Point""}";49.2834962131883, -123.111684741885
25;4648031;25-140308;00;Ujia International Educational Consultant Inc;Ujia Education;Issued;2024-12-19T14:07:27-08:00;2025-12-31;Consulting and Management Services;;;;4329;W 10TH AV;Vancouver;BC;CA;V6R 2H6;West Point Grey;3.0;265.0;2025-03-02T00:09:35-08:00;"{""coordinates"": [-123.203847253166, 49.2640039135441], ""type"": ""Point""}";49.2640039135441, -123.203847253166
25;4648086;25-140363;00;Sheila E Clark (Sheila Clark);;Issued;2024-12-03T20:03:26-08:00;2025-12-31;Consulting and Management Services;;;;;;Vancouver;BC;CA;;Dunbar-Southlands;1.0;265.0;2025-03-02T00:09:35-08:00;;
25;4648093;25-140370;00;Argentech Immigration Corp;Argentech Immigration;Issued;2024-12-04T05:25:11-08:00;2025-12-31;Consulting and Management Services;;;;;;Vancouver;BC;CA;;West End;0.0;265.0;2025-03-02T00:09:35-08:00;;
25;4648098;25-140375;00;Social Mission Canada Inc;;Issued;2024-12-20T12:37:56-08:00;2025-12-31;Consulting and Management Services;;;;;;Vancouver;BC;CA;;Kitsilano;2.0;265.0;2025-03-02T00:09:35-08:00;;
25;4648125;25-140402;00;Krystyne A Payne-McDonald  (Krystyne  Payne-McDonald);Th Co:Lab Collective;Issued;2024-12-30T20:48:36-08:00;2025-12-31;Consulting and Management Services;;;;;;Vancouver;BC;CA;;Mount Pleasant;1.0;265.0;2025-03-02T00:09:35-08:00;;
25;4648158;25-140435;00;(Keri Tessier);;Issued;2024-12-02T19:36:19-08:00;2025-12-31;Consulting and Management Services;;;;;;Vancouver;BC;CA;;Kensington-Cedar Cottage;1.0;265.0;2025-03-02T00:09:35-08:00;;
25;4648187;25-140464;00;RMX Immigration Consulting Ltd;;Issued;2024-12-29T10:35:51-08:00;2025-12-31;Consulting and Management Services;;;;;;Vancouver;BC;CA;;Downtown;1.0;265.0;2025-03-02T00:09:35-08:00;;
25;4648211;25-140488;00;(Jieun Kim);;Issued;2024-12-31T12:15:33-08:00;2025-12-31;Consulting and Management Services;;;;;;Vancouver;BC;CA;;West End;1.0;265.0;2025-03-02T00:09:35-08:00;;
25;4648218;25-140495;00;Vancouver Air Monitoring Safety Consulting Inc;;Issued;2024-12-16T13:18:12-08:00;2025-12-31;Consulting and Management Services;;;;;;Vancouver;BC;CA;;Kitsilano;0.0;265.0;2025-03-02T00:09:35-08:00;;
25;4648226;25-140503;00;Janey & Co Consulting Corp;;Issued;2024-12-12T12:34:58-08:00;2025-12-31;Consulting and Management Services;;305;Unit;2309;W 41ST AV;Vancouver;BC;CA;V6M 2A3;Arbutus-Ridge;5.0;265.0;2025-03-02T00:09:35-08:00;"{""coordinates"": [-123.160085930746, 49.2349276019615], ""type"": ""Point""}";49.2349276019615, -123.160085930746
25;4648230;25-140507;00;(Patric Farah);Farconsult Canada;Issued;2024-12-04T11:42:25-08:00;2025-12-31;Consulting and Management Services;;250;Unit;997;SEYMOUR ST;Vancouver;BC;CA;V6B 3M1;Downtown;1.0;265.0;2025-03-02T00:09:35-08:00;"{""coordinates"": [-123.122056018925, 49.2789639460617], ""type"": ""Point""}";49.2789639460617, -123.122056018925
25;4648232;25-140509;00;PILOTBOAT CONSULTING INC;;Issued;2024-12-16T18:53:31-08:00;2025-12-31;Consulting and Management Services;;;;;;Vancouver;BC;CA;;West End;1.0;265.0;2025-03-02T00:09:35-08:00;;
25;4648233;25-140510;00;(Lorne Prupas);Ivry Consulting Services;Issued;2024-12-06T12:31:29-08:00;2025-12-31;Consulting and Management Services;;;;;;Vancouver;BC;;;Killarney;1.0;265.0;2025-03-02T00:09:35-08:00;;
25;4648236;25-140513;00;YIN'S IMMIGRATION CONSULTING LTD;;Issued;2024-12-16T12:55:55-08:00;2025-12-31;Consulting and Management Services;;;;;;Vancouver;BC;;;;1.0;265.0;2025-03-02T00:09:35-08:00;;
25;4648242;25-140519;00;(Frederique Niel);Ma Business Coach;Issued;2024-12-16T12:23:01-08:00;2025-12-31;Consulting and Management Services;;;;;;Vancouver;BC;CA;;West End;0.0;265.0;2025-03-02T00:09:35-08:00;;
25;4648248;25-140525;00;CARBON WISE CONSULTING INC.;;Inactive;2024-12-30T08:21:55-08:00;2025-12-31;Consulting and Management Services;;;;;;Vancouver;BC;;;West End;3.0;265.0;2025-03-02T00:09:35-08:00;;
25;4648264;25-140541;00;(Karolina Nachel);Global Security Consulting;Issued;2024-12-20T15:50:57-08:00;2025-12-31;Consulting and Management Services;;;;;;Vancouver;BC;;;Mount Pleasant;1.0;265.0;2025-03-02T00:09:35-08:00;;
25;4648272;25-140549;00;(Jessica Rodwell);Jecca | Embodied Intimacy;Issued;2024-12-08T18:52:47-08:00;2025-12-31;Consulting and Management Services;;300;Unit;1090;HOMER STREET;Vancouver;BC;;V6B 2W9;Downtown;1.0;557.0;2025-03-02T00:09:35-08:00;;
25;4648284;25-140561;00;BONSAI SYSTEMS INC.;Bonsai Micro;Issued;2024-12-18T11:13:01-08:00;2025-12-31;Consulting and Management Services;;840;Unit;475;W GEORGIA STREET;Vancouver;BC;;V6B 4M9;Downtown;12.0;265.0;2025-03-02T00:09:35-08:00;;
25;4646653;25-138930;00;Xerowaste Solutions Inc;;Issued;2024-12-31T14:30:03-08:00;2025-12-31;Consulting and Management Services;;1704;Unit;1225;RICHARDS ST;Vancouver;BC;CA;V6B 1E6;Downtown;2.0;265.0;2025-03-02T00:09:35-08:00;"{""coordinates"": [-123.124937051037, 49.2757934912451], ""type"": ""Point""}";49.2757934912451, -123.124937051037
25;4646655;25-138932;00;Resource Design Inc;;Issued;2024-12-06T11:58:50-08:00;2025-12-31;Consulting and Management Services;;;;;;Vancouver;BC;CA;;West End;1.0;265.0;2025-03-02T00:09:35-08:00;;
25;4646670;25-138947;00;Geominex Consultants Inc;;Issued;2024-12-19T12:59:22-08:00;2025-12-31;Consulting and Management Services;;1411;Unit;409;GRANVILLE ST;Vancouver;BC;CA;V6C 1T2;Downtown;7.0;265.0;2025-03-02T00:09:35-08:00;"{""coordinates"": [-123.114569797322, 49.2853593925229], ""type"": ""Point""}";49.2853593925229, -123.114569797322
25;4646686;25-138963;00;(Cynthia Durance);Precision Identification;Issued;2024-12-29T14:49:32-08:00;2025-12-31;Consulting and Management Services;;;;;;Vancouver;BC;CA;;Kitsilano;0.0;265.0;2025-03-02T00:09:35-08:00;;
25;4646690;25-138967;00;(Brigitte Detschelt);GSSC;Issued;2024-12-29T18:59:03-08:00;2025-12-31;Consulting and Management Services;;305;Unit;525;Seymour;Vancouver;BC;CA;V6B 3H7;Downtown;1.0;265.0;2025-03-02T00:09:35-08:00;;
25;4648345;25-140622;00;COMOSUN ENTERPRISE CORPORATION;;Issued;2024-12-05T16:24:29-08:00;2025-12-31;Consulting and Management Services;;250;Unit;997;SEYMOUR ST;Vancouver;BC;;V6B 3M1;Downtown;1.0;265.0;2025-03-02T00:09:35-08:00;"{""coordinates"": [-123.122056018925, 49.2789639460617], ""type"": ""Point""}";49.2789639460617, -123.122056018925
25;4648361;25-140638;00;LILU EXPERIENCES INC.;Lilu Experiences;Issued;2024-12-11T20:59:09-08:00;2025-12-31;Consulting and Management Services;;;;;;Vancouver;BC;;;Mount Pleasant;2.0;265.0;2025-03-02T00:09:35-08:00;;
25;4648425;25-140702;00;(Monica Murguia Garcia);MMG Immigration Consulting;Issued;2024-12-10T11:52:52-08:00;2025-12-31;Consulting and Management Services;;;;;;Vancouver;BC;;;Downtown;1.0;265.0;2025-03-02T00:09:35-08:00;;
25;4648433;25-140710;00;Notch HR Consulting Inc;;Issued;2024-12-01T15:54:52-08:00;2025-12-31;Consulting and Management Services;;;;;;Vancouver;BC;CA;;Mount Pleasant;1.0;265.0;2025-03-02T00:09:35-08:00;;
25;4648437;25-140714;00;PRAGILIS SOLUTIONS INC.;;Inactive;2024-12-13T12:08:20-08:00;2025-12-31;Consulting and Management Services;;400;Unit;410;W GEORGIA ST;Vancouver;BC;;V6B 1Z3;Downtown;2.0;265.0;2025-03-02T00:09:35-08:00;"{""coordinates"": [-123.115881581318, 49.2805115734956], ""type"": ""Point""}";49.2805115734956, -123.115881581318
25;4648451;25-140728;00;KENSOFT CONSULTING LTD.;;Issued;2024-12-08T18:10:02-08:00;2025-12-31;Consulting and Management Services;;;;;;Vancouver;BC;;;Shaughnessy;1.0;265.0;2025-03-02T00:09:35-08:00;;
25;4648452;25-140729;00;(Rebecca Visser);Crescent Coaching;Issued;2024-12-13T11:10:05-08:00;2025-12-31;Consulting and Management Services;;;;;;Vancouver;BC;;;Riley Park;1.0;265.0;2025-03-02T00:09:35-08:00;;
25;4648454;25-140731;00;Hui Fen Yang (Hui Yang);Image Charisma;Issued;2024-12-06T10:47:32-08:00;2025-12-31;Consulting and Management Services;;218;Unit;5729;WEST BOULEVARD;Vancouver;BC;CA;V6M 3W8;Kerrisdale;1.0;265.0;2025-03-02T00:09:35-08:00;"{""coordinates"": [-123.156006486976, 49.2342611476], ""type"": ""Point""}";49.2342611476, -123.156006486976
25;4648477;25-140754;00;Sandra C Millan (Sandra Millan);HeartMath Coaching;Issued;2024-12-12T18:46:01-08:00;2025-12-31;Consulting and Management Services;;210;Unit;2760;W BROADWAY;Vancouver;BC;CA;V6K 4M2;Kitsilano;0.0;265.0;2025-03-02T00:09:35-08:00;"{""coordinates"": [-123.167521679629, 49.2637884778998], ""type"": ""Point""}";49.2637884778998, -123.167521679629
25;4648483;25-140760;00;CAPSTONE 72 PROPERTIES LIMITED;;Issued;2024-12-09T15:49:29-08:00;2025-12-31;Consulting and Management Services;;510;Unit;580;HORNBY STREET;Vancouver;BC;;V3Z 0T3;Downtown;2.0;265.0;2025-03-02T00:09:35-08:00;;
25;4648485;25-140762;00;LI AND ASSOCIATES TRADEMARK SERVICES LTD;Intellectual Property Agency & International Investment & Trading Consultation;Issued;2024-12-04T14:15:29-08:00;2025-12-31;Consulting and Management Services;;402;Unit;1055;W BROADWAY;Vancouver;BC;CA;V6H 1E2;Fairview;1.0;265.0;2025-03-02T00:09:35-08:00;"{""coordinates"": [-123.127803379894, 49.2637106519185], ""type"": ""Point""}";49.2637106519185, -123.127803379894
25;4648527;25-140804;00;(Bruce Horth);;Issued;2024-12-17T21:06:29-08:00;2025-12-31;Consulting and Management Services;;;;;;Vancouver;BC;;;;1.0;265.0;2025-03-02T00:09:35-08:00;;
25;4648541;25-140818;00;PERENNIAL CONSULTING INC.;;Issued;2024-12-30T08:13:53-08:00;2025-12-31;Consulting and Management Services;;;;;;Vancouver;BC;;;Arbutus-Ridge;1.0;265.0;2025-03-02T00:09:35-08:00;;
25;4648555;25-140832;00;Lloyd's Register Canada Limited;;Issued;2024-12-10T17:27:24-08:00;2025-12-31;Consulting and Management Services;;2400;Unit;1055;W GEORGIA ST;Vancouver;BC;CA;V6E 4A6;Downtown;11.0;265.0;2025-03-02T00:09:35-08:00;"{""coordinates"": [-123.121463646921, 49.2852447964792], ""type"": ""Point""}";49.2852447964792, -123.121463646921
25;4648571;25-140848;00;Kulanet Consulting ULC;;Issued;2024-12-12T18:35:54-08:00;2025-12-31;Consulting and Management Services;;;;;;Vancouver;BC;;;Downtown;1.0;265.0;2025-03-02T00:09:35-08:00;;
25;4648594;25-140871;00;HIGHBURY WEST DEVELOPMENT INC.;;Issued;2024-12-06T13:06:09-08:00;2025-12-31;Consulting and Management Services;;;;;;Vancouver;BC;CA;;Kensington-Cedar Cottage;1.0;265.0;2025-03-02T00:09:35-08:00;;
25;4648601;25-140878;00;M M & R VALUATION SERVICES INC.;HVS;Issued;2024-12-09T16:23:04-08:00;2025-12-31;Consulting and Management Services;;205;Unit;815;W HASTINGS STREET;Vancouver;BC;;V6C 1B4;Downtown;5.0;265.0;2025-03-02T00:09:35-08:00;;
25;4648617;25-140894;00;ALPHATECS CONSULTANTS LTD.;;Issued;2024-12-31T19:45:50-08:00;2025-12-31;Consulting and Management Services;;;;;;Vancouver;BC;;;Downtown;1.0;265.0;2025-03-02T00:09:35-08:00;;
25;4648618;25-140895;00;FORM ADVISING (2024) UNLIMITED LIABILITY COMPANY;FORM Advising;Issued;2024-12-05T14:27:00-08:00;2025-12-31;Consulting and Management Services;;;;;;Vancouver;BC;;;Kitsilano;7.0;265.0;2025-03-02T00:09:35-08:00;;
25;4648647;25-140924;00;(Ashley Ling);Ashley Ling Coaching;Issued;2024-12-17T13:10:55-08:00;2025-12-31;Consulting and Management Services;;;;;;Vancouver;BC;;;Strathcona;2.0;265.0;2025-03-02T00:09:35-08:00;;
25;4648676;25-140953;00;URBANEX STRATEGIES LTD.;Urbanex;Issued;2024-12-03T10:35:15-08:00;2025-12-31;Consulting and Management Services;;2368;Unit;666;BURRARD ST;Vancouver;BC;;V6C 2X8;Downtown;5.0;265.0;2025-03-02T00:09:35-08:00;"{""coordinates"": [-123.119358394194, 49.2850670237956], ""type"": ""Point""}";49.2850670237956, -123.119358394194
25;4648686;25-140963;00;LOCHDALE ADVISORY LTD.;;Issued;2024-12-20T12:49:09-08:00;2025-12-31;Consulting and Management Services;;215;Unit;625;HOWE ST;Vancouver;BC;;V6C 2T6;Downtown;1.0;265.0;2025-03-02T00:09:35-08:00;"{""coordinates"": [-123.11799800626, 49.2842309792976], ""type"": ""Point""}";49.2842309792976, -123.11799800626
25;4648694;25-140971;00;KANE CONSULTING INC;;Issued;2024-12-03T15:09:32-08:00;2025-12-31;Consulting and Management Services;;775;Unit;1199;W PENDER ST;Vancouver;BC;CA;V6E 2R1;Downtown;14.0;565.0;2025-03-02T00:09:35-08:00;"{""coordinates"": [-123.122585601107, 49.2883558777116], ""type"": ""Point""}";49.2883558777116, -123.122585601107
25;4646664;25-138941;00;CH2M Hill Canada Limited;;Issued;2024-12-19T09:40:48-08:00;2025-12-31;Consulting and Management Services;;;;;;Burnaby;BC;CA;;;200.0;265.0;2025-03-02T00:09:33-08:00;;
25;4647041;25-139318;00;L I T Aquatics Ltd;;Issued;2024-12-30T13:23:25-08:00;2025-12-31;Consulting and Management Services;;;;;;White Rock;BC;CA;;;4.0;265.0;2025-03-02T00:09:33-08:00;;
25;4647122;25-139399;00;Sterling IAQ Consultants Ltd;;Issued;2024-12-30T20:48:00-08:00;2025-12-31;Consulting and Management Services;;;;;;Burnaby;BC;CA;;Out of Town;8.0;265.0;2025-03-02T00:09:33-08:00;;
25;4647150;25-139427;00;Parsons Inc;;Issued;2024-12-02T08:45:39-08:00;2025-12-31;Consulting and Management Services;;;;;;Langley;BC;CA;;Out of Town;12.0;265.0;2025-03-02T00:09:33-08:00;;
25;4647166;25-139443;00;(Klodian Xhepaj);KBX Canada Immigration Services;Issued;2024-12-28T17:48:06-08:00;2025-12-31;Consulting and Management Services;;;;;;Burnaby;BC;CA;;;2.0;265.0;2025-03-02T00:09:33-08:00;;
25;4647252;25-139529;00;Yong Hao Investment Consultant Ltd;;Issued;2024-12-30T19:16:35-08:00;2025-12-31;Consulting and Management Services;;;;;;Richmond;BC;CA;;;1.0;265.0;2025-03-02T00:09:33-08:00;;
25;4647279;25-139556;00;0930501 BC Ltd;Prolepsis Consulting;Issued;2024-12-31T00:42:11-08:00;2025-12-31;Consulting and Management Services;;;;;;Richmond;BC;CA;;;1.0;265.0;2025-03-02T00:09:33-08:00;;
25;4647283;25-139560;00;Emtec Environmental Health & Safety Consulting Inc;;Issued;2024-12-30T21:50:22-08:00;2025-12-31;Consulting and Management Services;;;;;;Richmond;BC;CA;;;3.0;265.0;2025-03-02T00:09:33-08:00;;
25;4647459;25-139736;00;DW Energy Advisors Inc;;Issued;2024-12-31T11:36:25-08:00;2025-12-31;Consulting and Management Services;;;;;;Maple Ridge;BC;CA;;;5.0;265.0;2025-03-02T00:09:33-08:00;;
25;4647494;25-139771;00;Michelle Mazzoni & Nicolas Mazzoni;Michelle Mazzoni Business and Marketing Consultancy;Issued;2024-12-16T12:04:24-08:00;2025-12-31;Consulting and Management Services;;;;;;Burnaby;BC;CA;;;0.0;265.0;2025-03-02T00:09:33-08:00;;
25;4647509;25-139786;00;DARKHORSE ANALYTICS INC;;Issued;2024-12-30T11:37:25-08:00;2025-12-31;Consulting and Management Services;;;;;;Edmonton;AB;CA;;Out of Town;20.0;265.0;2025-03-02T00:09:33-08:00;;
25;4648057;25-140334;00;(Baraa Habash);Enjaz Environmental Consulting;Issued;2024-12-31T12:17:37-08:00;2025-12-31;Consulting and Management Services;;;;;;Langley;BC;CA;;Out of Town;0.0;265.0;2025-03-02T00:09:33-08:00;;
25;4648300;25-140577;00;(Alan Reese);REESE CONSTRUCTION LOGISTICS;Issued;2024-12-14T09:32:36-08:00;2025-12-31;Consulting and Management Services;;;;;;Pitt Meadows;BC;CA;;Out of Town;1.0;265.0;2025-03-02T00:09:33-08:00;;
25;4646710;25-138987;00;Theodor D Sterling And Associates Ltd;;Issued;2024-12-18T13:12:38-08:00;2025-12-31;Consulting and Management Services;;310;Unit;1122;Mainland St;Vancouver;BC;CA;V6B 5L1;Downtown;3.0;265.0;2025-03-02T00:09:35-08:00;"{""coordinates"": [-123.120702300081, 49.2751484139772], ""type"": ""Point""}";49.2751484139772, -123.120702300081
25;4646713;25-138990;00;(Gregory Van Wijk);Vortex Business Software;Issued;2024-12-18T19:30:18-08:00;2025-12-31;Consulting and Management Services;;;;;;Vancouver;BC;CA;;Downtown;1.0;265.0;2025-03-02T00:09:35-08:00;;
25;4646726;25-139003;00;Quoin Project & Cost Management Ltd;;Issued;2024-12-10T13:10:33-08:00;2025-12-31;Consulting and Management Services;;510;Unit;837;W Hastings St;Vancouver;BC;CA;V6C 3N6;Downtown;1.0;265.0;2025-03-02T00:09:35-08:00;"{""coordinates"": [-123.11490375049, 49.2868229440874], ""type"": ""Point""}";49.2868229440874, -123.11490375049
25;4646731;25-139008;00;Vaughn Consulting Inc;;Issued;2024-12-05T08:09:51-08:00;2025-12-31;Consulting and Management Services;;;;;;Vancouver;BC;CA;;Riley Park;1.0;265.0;2025-03-02T00:09:35-08:00;;
25;4646750;25-139027;00;You-Can Education Services & Consulting Inc;;Issued;2024-12-18T15:37:03-08:00;2025-12-31;Consulting and Management Services;;840;Unit;1200;W 73rd Av;Vancouver;BC;CA;V6P 6G5;Marpole;2.0;265.0;2025-03-02T00:09:35-08:00;"{""coordinates"": [-123.133618556976, 49.2039954491368], ""type"": ""Point""}";49.2039954491368, -123.133618556976
25;4646761;25-139038;00;Magenta Marketing Inc;;Issued;2024-12-02T16:10:48-08:00;2025-12-31;Consulting and Management Services;;;;;;Vancouver;BC;CA;;Dunbar-Southlands;1.0;265.0;2025-03-02T00:09:35-08:00;;
25;4646766;25-139043;00;RGF Integrated Wealth Mangement Ltd;;Issued;2024-12-11T08:08:21-08:00;2025-12-31;Consulting and Management Services;;1st - 4th;Unit;1701;W BROADWAY;Vancouver;BC;CA;V6J 1Y3;Fairview;68.0;265.0;2025-03-02T00:09:35-08:00;"{""coordinates"": [-123.143743446815, 49.2639784628682], ""type"": ""Point""}";49.2639784628682, -123.143743446815
25;4646773;25-139050;00;Raymond George Nakamura (Raymond Nakamura);;Issued;2024-12-18T16:14:15-08:00;2025-12-31;Consulting and Management Services;;;;;;Vancouver;BC;CA;;Dunbar-Southlands;0.0;265.0;2025-03-02T00:09:35-08:00;;
25;4646781;25-139058;00;(Sandra Berman);Circa Enterprises;Issued;2024-12-11T10:37:05-08:00;2025-12-31;Consulting and Management Services;;;;;;Vancouver;BC;CA;;South Cambie;1.0;265.0;2025-03-02T00:09:35-08:00;;
25;4646783;25-139060;00;Western Real Estate Advisors Inc;;Issued;2024-12-23T11:19:37-08:00;2025-12-31;Consulting and Management Services;;;;;;Vancouver;BC;CA;;Riley Park;1.0;265.0;2025-03-02T00:09:35-08:00;;
25;4646814;25-139091;00;Tekara Organizational Effectiveness Inc;;Issued;2024-12-18T12:14:45-08:00;2025-12-31;Consulting and Management Services;;1300;Unit;1500;W GEORGIA ST;Vancouver;BC;CA;V6G 2Z6;West End;3.0;265.0;2025-03-02T00:09:35-08:00;"{""coordinates"": [-123.130300416539, 49.2899484858578], ""type"": ""Point""}";49.2899484858578, -123.130300416539
25;4646825;25-139102;00;Agile Concept Consulting Inc;;Issued;2024-12-07T13:48:51-08:00;2025-12-31;Consulting and Management Services;;;;;;Vancouver;BC;CA;;Marpole;2.0;265.0;2025-03-02T00:09:35-08:00;;
25;4646826;25-139103;00;(William Trousdale);Ecoplan International;Issued;2024-12-06T15:27:50-08:00;2025-12-31;Consulting and Management Services;;;;1333;JOHNSTON ST;Vancouver;BC;CA;V6H 3R9;Fairview;9.0;265.0;2025-03-02T00:09:35-08:00;"{""coordinates"": [-123.130698356444, 49.2699536547789], ""type"": ""Point""}";49.2699536547789, -123.130698356444
25;4646843;25-139120;00;Todd Bennett Constant (Todd Constant);Constant Consulting;Issued;2024-12-18T18:31:03-08:00;2025-12-31;Consulting and Management Services;;300;Unit;1275;W 6TH AV;Vancouver;BC;CA;V6H 1A6;Fairview;3.0;265.0;2025-03-02T00:09:35-08:00;"{""coordinates"": [-123.133064428914, 49.2663820185595], ""type"": ""Point""}";49.2663820185595, -123.133064428914
25;4646866;25-139143;00;Westcoast Actuaries Inc;;Issued;2024-12-10T12:43:57-08:00;2025-12-31;Consulting and Management Services;;908;Unit;1166;ALBERNI ST;Vancouver;BC;CA;V6E3Z3;West End;21.0;265.0;2025-03-02T00:09:35-08:00;"{""coordinates"": [-123.125682236504, 49.2861554000034], ""type"": ""Point""}";49.2861554000034, -123.125682236504
25;4646869;25-139146;00;(Maureen Smith);Maureen Smith Consulting;Issued;2024-12-21T08:28:31-08:00;2025-12-31;Consulting and Management Services;;;;;;Vancouver;BC;CA;;South Cambie;1.0;265.0;2025-03-02T00:09:35-08:00;;
25;4646871;25-139148;00;Mauricio Humar Pizarro (Mauricio Pizarro);Contacto Canada Educational Travel;Issued;2024-12-19T15:36:43-08:00;2025-12-31;Consulting and Management Services;;300;Unit;422;RICHARDS ST;Vancouver;BC;CA;V6B 2Z3;Downtown;1.0;265.0;2025-03-02T00:09:35-08:00;"{""coordinates"": [-123.111926364132, 49.2836865871596], ""type"": ""Point""}";49.2836865871596, -123.111926364132
25;4646881;25-139158;00;(Eva Psenicka);Projecteva Management;Issued;2024-12-18T13:43:29-08:00;2025-12-31;Consulting and Management Services;;;;;;Vancouver;BC;CA;;Kitsilano;0.0;265.0;2025-03-02T00:09:35-08:00;;
25;4646883;25-139160;00;Vertical Bridge Corporate Consulting Inc;;Issued;2024-12-16T15:37:48-08:00;2025-12-31;Consulting and Management Services;;300;Unit;1275;W 6TH AV;Vancouver;BC;CA;V6H 1A6;Fairview;9.0;265.0;2025-03-02T00:09:35-08:00;"{""coordinates"": [-123.133064428914, 49.2663820185595], ""type"": ""Point""}";49.2663820185595, -123.133064428914
25;4646886;25-139163;00;Fenella Chi Fun Sung (Fenella Sung);DS Communications Group;Issued;2024-12-15T20:07:59-08:00;2025-12-31;Consulting and Management Services;;720;Unit;999;W BROADWAY;Vancouver;BC;CA;V5Z 1K5;Fairview;1.0;265.0;2025-03-02T00:09:35-08:00;"{""coordinates"": [-123.126104236733, 49.2638663729166], ""type"": ""Point""}";49.2638663729166, -123.126104236733
25;4646906;25-139183;00;Suzanne Karen Kenney (Suzanne Kenney);;Issued;2024-12-16T10:46:37-08:00;2025-12-31;Consulting and Management Services;;201;Unit;2065;W 4TH AV;Vancouver;BC;CA;V6J 1N3;Kitsilano;1.0;265.0;2025-03-02T00:09:35-08:00;"{""coordinates"": [-123.151974204052, 49.2683828391385], ""type"": ""Point""}";49.2683828391385, -123.151974204052
25;4646931;25-139208;00;Shannon Joan Taylor (Shannon Taylor);Taylor-Made Business Solutions;Issued;2024-12-03T08:54:21-08:00;2025-12-31;Consulting and Management Services;;;;;;Vancouver;BC;CA;;Kerrisdale;0.0;265.0;2025-03-02T00:09:35-08:00;;
25;4646932;25-139209;00;Fuse Interactive Inc;Fuse Interactive;Issued;2024-12-06T12:21:21-08:00;2025-12-31;Consulting and Management Services;;;;3843;CLARK DRIVE;Vancouver;BC;CA;V5V 4Y7;Kensington-Cedar Cottage;7.0;265.0;2025-03-02T00:09:35-08:00;"{""coordinates"": [-123.078376375746, 49.2501250133244], ""type"": ""Point""}";49.2501250133244, -123.078376375746
25;4646954;25-139231;00;Fullier Enterprise Ltd;;Issued;2024-12-13T18:10:00-08:00;2025-12-31;Consulting and Management Services;;;;;;Vancouver;BC;CA;;Victoria-Fraserview;1.0;265.0;2025-03-02T00:09:35-08:00;;
25;4646984;25-139261;00;Martha Ann Burton (Martha Burton);Martha Burton Management Consulting;Issued;2024-12-13T14:07:44-08:00;2025-12-31;Consulting and Management Services;;;;;;Vancouver;BC;CA;;Oakridge;1.0;265.0;2025-03-02T00:09:35-08:00;;
25;4646996;25-139273;00;(Lori Baxter);Lori Baxter Consulting;Issued;2024-12-16T10:10:01-08:00;2025-12-31;Consulting and Management Services;;;;;;Vancouver;BC;CA;;Mount Pleasant;1.0;265.0;2025-03-02T00:09:35-08:00;;
25;4647021;25-139298;00;Elettra Communications Ltd;Elettra Communications;Issued;2024-12-03T10:44:36-08:00;2025-12-31;Consulting and Management Services;;607;Unit;409;GRANVILLE ST;Vancouver;BC;CA;V6C 1T2;Downtown;5.0;265.0;2025-03-02T00:09:35-08:00;"{""coordinates"": [-123.114569797322, 49.2853593925229], ""type"": ""Point""}";49.2853593925229, -123.114569797322
25;4647024;25-139301;00;(Dusan Pekic);Etica Systems;Issued;2024-12-24T17:11:20-08:00;2025-12-31;Consulting and Management Services;;;;;;Vancouver;BC;CA;;Victoria-Fraserview;1.0;265.0;2025-03-02T00:09:35-08:00;;
25;4647031;25-139308;00;(Laura Samaroo);Towers Watson;Issued;2024-12-16T10:30:58-08:00;2025-12-31;Consulting and Management Services;;2650;Unit;666;BURRARD ST;Vancouver;BC;CA;V6C 2X8;Downtown;39.0;265.0;2025-03-02T00:09:35-08:00;"{""coordinates"": [-123.119358394194, 49.2850670237956], ""type"": ""Point""}";49.2850670237956, -123.119358394194
25;4647040;25-139317;00;(Reynaldo Bahena);Bahena Immigration Services;Issued;2024-12-18T10:33:39-08:00;2025-12-31;Consulting and Management Services;;;;;;Vancouver;BC;CA;;Victoria-Fraserview;0.0;265.0;2025-03-02T00:09:35-08:00;;
25;4647050;25-139327;00;Noriel Rodrigue Guillermo (Noriel Guillermo);;Issued;2024-12-27T00:01:40-08:00;2025-12-31;Consulting and Management Services;;;;;;Vancouver;BC;CA;;Downtown;0.0;265.0;2025-03-02T00:09:35-08:00;;
25;4647057;25-139334;00;Biopolicy Innovations Inc;;Issued;2024-12-03T16:40:04-08:00;2025-12-31;Consulting and Management Services;;413;Unit;1155;ROBSON ST;Vancouver;BC;CA;V6E 1B5;West End;52.0;265.0;2025-03-02T00:09:35-08:00;"{""coordinates"": [-123.125726241191, 49.2855558149187], ""type"": ""Point""}";49.2855558149187, -123.125726241191
25;4647068;25-139345;00;(Alexander Hodgins);Apex Consulting;Issued;2024-12-21T08:46:30-08:00;2025-12-31;Consulting and Management Services;;;;;;Vancouver;BC;CA;;Grandview-Woodland;1.0;265.0;2025-03-02T00:09:35-08:00;;
25;4647070;25-139347;00;COMPTON FUNDRAISING CONSULTANTS CANADA LTD;;Issued;2024-12-03T13:59:03-08:00;2025-12-31;Consulting and Management Services;;600;Unit;777;HORNBY ST;Vancouver;BC;CA;V6Z 1S4;Downtown;2.0;265.0;2025-03-02T00:09:35-08:00;"{""coordinates"": [-123.121421490049, 49.2832466257592], ""type"": ""Point""}";49.2832466257592, -123.121421490049
25;4647091;25-139368;00;Murray Paterson Marketing Group Inc;;Issued;2024-12-05T10:21:39-08:00;2025-12-31;Consulting and Management Services;;;;;;Vancouver;BC;CA;;Fairview;3.0;265.0;2025-03-02T00:09:35-08:00;;
25;4647099;25-139376;00;Recollective Consulting Inc;;Issued;2024-12-13T09:13:36-08:00;2025-12-31;Consulting and Management Services;;210;Unit;128;W HASTINGS ST;Vancouver;BC;CA;V6B 1G8;Downtown;6.0;265.0;2025-03-02T00:09:35-08:00;"{""coordinates"": [-123.108413374474, 49.2819153321785], ""type"": ""Point""}";49.2819153321785, -123.108413374474
25;4647102;25-139379;00;Hattori International Trading Inc;;Issued;2024-12-10T21:09:22-08:00;2025-12-31;Consulting and Management Services;;501;Unit;535;THURLOW ST;Vancouver;BC;CA;V6E 3L2;Downtown;2.0;265.0;2025-03-02T00:09:35-08:00;"{""coordinates"": [-123.121522823224, 49.2870270555211], ""type"": ""Point""}";49.2870270555211, -123.121522823224
25;4647104;25-139381;00;George & Bell Consulting Inc;;Issued;2024-12-11T14:35:29-08:00;2025-12-31;Consulting and Management Services;;M2;Unit;601;W BROADWAY;Vancouver;BC;CA;V5Z 4C2;Fairview;50.0;265.0;2025-03-02T00:09:35-08:00;"{""coordinates"": [-123.118596122757, 49.2635657969344], ""type"": ""Point""}";49.2635657969344, -123.118596122757
25;4647108;25-139385;00;DJ Ramsey Consulting Ltd;D J Ramsey Consulting;Issued;2024-12-29T07:57:14-08:00;2025-12-31;Consulting and Management Services;;;;;;Vancouver;BC;CA;;Fairview;2.0;265.0;2025-03-02T00:09:35-08:00;;
25;4647123;25-139400;00;J Proust & Associates Inc;;Issued;2024-12-12T14:19:35-08:00;2025-12-31;Consulting and Management Services;;650;Unit;669;HOWE ST;Vancouver;BC;CA;V6C 2E5;Downtown;1.0;265.0;2025-03-02T00:09:35-08:00;"{""coordinates"": [-123.119033470012, 49.2836798173785], ""type"": ""Point""}";49.2836798173785, -123.119033470012
25;4647131;25-139408;00;Deetken Enterprises Ltd;The Deetken Group;Issued;2024-12-17T11:16:28-08:00;2025-12-31;Consulting and Management Services;;500;;210;W BROADWAY;Vancouver;BC;CA;V5Y 3W2;Mount Pleasant;27.0;265.0;2025-03-02T00:09:35-08:00;"{""coordinates"": [-123.109923171761, 49.2628332496449], ""type"": ""Point""}";49.2628332496449, -123.109923171761
25;4647133;25-139410;00;(Michael Nagel);;Issued;2024-12-16T12:36:42-08:00;2025-12-31;Consulting and Management Services;;;;;;Vancouver;BC;CA;;Fairview;1.0;265.0;2025-03-02T00:09:35-08:00;;
25;4647179;25-139456;00;Karen J Lloyd (Karen Lloyd);See The Script Media;Issued;2024-12-13T13:47:15-08:00;2025-12-31;Consulting and Management Services;;;;;;Vancouver;BC;CA;;Downtown;1.0;265.0;2025-03-02T00:09:35-08:00;;
25;4647186;25-139463;00;(Mirko Suljagic);K2 Consultants;Issued;2024-12-08T06:32:09-08:00;2025-12-31;Consulting and Management Services;;;;;;Vancouver;BC;CA;;Kerrisdale;1.0;265.0;2025-03-02T00:09:35-08:00;;
25;4647199;25-139476;00;Wavecrest Business Corp;;Issued;2024-12-23T08:57:10-08:00;2025-12-31;Consulting and Management Services;;;;;;Vancouver;BC;CA;;West Point Grey;1.0;265.0;2025-03-02T00:09:35-08:00;;
25;4647201;25-139478;00;Kenneth Bradley Poulin (Kenneth Poulin);Evermark Trademarks;Issued;2024-12-06T12:13:03-08:00;2025-12-31;Consulting and Management Services;;;;;;Vancouver;BC;CA;;Downtown;1.0;265.0;2025-03-02T00:09:35-08:00;;
25;4647217;25-139494;00;Can Board Immigration Group Ltd;;Issued;2024-12-12T16:55:31-08:00;2025-12-31;Consulting and Management Services;;;;250;E 10TH AV;Vancouver;BC;CA;V5T 1Z5;Mount Pleasant;1.0;265.0;2025-03-02T00:09:35-08:00;"{""coordinates"": [-123.099852415945, 49.2617184227041], ""type"": ""Point""}";49.2617184227041, -123.099852415945
25;4647225;25-139502;00;(Barbara Kirby);seniorsAdvocate.ca;Issued;2024-12-03T15:43:47-08:00;2025-12-31;Consulting and Management Services;;;;;;Vancouver;BC;CA;;Arbutus-Ridge;1.0;265.0;2025-03-02T00:09:35-08:00;;
25;4647229;25-139506;00;Wu & Associates Immigration & Business Services Ltd;Wu & Associates Immigration & Business Services;Issued;2024-12-30T14:14:06-08:00;2025-12-31;Consulting and Management Services;;;;;;Vancouver;BC;CA;;Riley Park;0.0;265.0;2025-03-02T00:09:35-08:00;;
25;4647236;25-139513;00;Broadway C S Business Services Ltd;;Issued;2024-12-30T11:36:07-08:00;2025-12-31;Consulting and Management Services;;325;Unit;550;W BROADWAY;Vancouver;BC;CA;V5Z 0E9;Fairview;1.0;265.0;2025-03-02T00:09:35-08:00;"{""coordinates"": [-123.116555459207, 49.2629292228399], ""type"": ""Point""}";49.2629292228399, -123.116555459207
25;4647292;25-139569;00;Beasley & Associates Planning Inc;;Issued;2024-12-05T10:17:57-08:00;2025-12-31;Consulting and Management Services;;;;;;Vancouver;BC;CA;;Downtown;1.0;265.0;2025-03-02T00:09:35-08:00;;
25;4647293;25-139570;00;MissyJena Media Innovations Inc;;Issued;2024-12-29T00:09:23-08:00;2025-12-31;Consulting and Management Services;;;;;;Vancouver;BC;CA;;Fairview;1.0;265.0;2025-03-02T00:09:35-08:00;;
25;4647294;25-139571;00;Kotu Management Ltd;;Issued;2024-12-30T12:21:11-08:00;2025-12-31;Consulting and Management Services;;;;;;Vancouver;BC;CA;;Downtown;1.0;265.0;2025-03-02T00:09:35-08:00;;
25;4647298;25-139575;00;Hendrik Cornelis Reemeyer (Hendrik Reemeyer);Resourceful Paths Consulting;Issued;2024-12-20T18:54:09-08:00;2025-12-31;Consulting and Management Services;;;;;;Vancouver;BC;CA;;Downtown;1.0;265.0;2025-03-02T00:09:35-08:00;;
25;4647299;25-139576;00;PlaceSpeak Inc;;Issued;2024-12-31T11:30:28-08:00;2025-12-31;Consulting and Management Services;;;;;;Vancouver;BC;CA;;Kitsilano;2.0;265.0;2025-03-02T00:09:35-08:00;;
25;4647301;25-139578;00;(Christopher Stairs);;Issued;2024-12-20T07:55:55-08:00;2025-12-31;Consulting and Management Services;;;;;;Vancouver;BC;CA;;West End;1.0;265.0;2025-03-02T00:09:35-08:00;;
25;4647340;25-139617;00;Yong Quan Investments Ltd;;Issued;2024-12-18T13:27:41-08:00;2025-12-31;Consulting and Management Services;;;;;;Vancouver;BC;CA;;Shaughnessy;0.0;265.0;2025-03-02T00:09:35-08:00;;
25;4647342;25-139619;00;Front And Centre Communications Inc;;Issued;2024-12-09T10:18:14-08:00;2025-12-31;Consulting and Management Services;;;;;;Vancouver;BC;CA;;Kensington-Cedar Cottage;1.0;265.0;2025-03-02T00:09:35-08:00;;
25;4647345;25-139622;00;Win Ratio Consulting Ltd;Win Ratio;Issued;2024-12-04T07:12:33-08:00;2025-12-31;Consulting and Management Services;;;;;;Vancouver;BC;CA;;West End;3.0;265.0;2025-03-02T00:09:35-08:00;;
25;4647357;25-139634;00;Margaret Emily Stuart (Margaret Stuart);Advanced Legal Settlements;Issued;2024-12-31T13:07:30-08:00;2025-12-31;Consulting and Management Services;;;;;;Vancouver;BC;CA;;West End;1.0;265.0;2025-03-02T00:09:35-08:00;;
25;4647362;25-139639;00;(Niknaz Kahnamoui);;Issued;2024-12-31T18:47:36-08:00;2025-12-31;Consulting and Management Services;;503;Unit;1055;HOMER ST;Vancouver;BC;CA;V6B 1G3;Downtown;1.0;265.0;2025-03-02T00:09:35-08:00;"{""coordinates"": [-123.121218944951, 49.2769778989866], ""type"": ""Point""}";49.2769778989866, -123.121218944951
25;4647401;25-139678;00;RealSIDE Consulting Inc;;Issued;2024-12-12T16:48:42-08:00;2025-12-31;Consulting and Management Services;;700;Unit;838;W HASTINGS ST;Vancouver;BC;CA;V6C 1C8;Downtown;1.0;557.0;2025-03-02T00:09:35-08:00;"{""coordinates"": [-123.115954794154, 49.2861401861865], ""type"": ""Point""}";49.2861401861865, -123.115954794154
25;4647432;25-139709;00;Sunya Maryke Lai Thom (Sunya Thom);Clara Lai Consulting;Issued;2024-12-27T10:00:11-08:00;2025-12-31;Consulting and Management Services;;;;;;Vancouver;BC;CA;;Kerrisdale;1.0;265.0;2025-03-02T00:09:35-08:00;;
25;4647436;25-139713;00;Integra Medical Consulting Inc;Integra Medical Consulting;Issued;2024-12-10T10:18:24-08:00;2025-12-31;Consulting and Management Services;;700;Unit;925;W GEORGIA ST;Vancouver;BC;CA;V6C 3L2;Downtown;16.0;265.0;2025-03-02T00:09:35-08:00;"{""coordinates"": [-123.119804845719, 49.2843168050669], ""type"": ""Point""}";49.2843168050669, -123.119804845719
25;4647446;25-139723;00;Tien Van Huynh (Van Huynh);Dream Destination Immigration Consulting Services Co;Issued;2024-12-22T13:31:06-08:00;2025-12-31;Consulting and Management Services;;;;;;Vancouver;BC;CA;;Renfrew-Collingwood;1.0;265.0;2025-03-02T00:09:35-08:00;;
25;4647450;25-139727;00;(Mika Yamada);Mycana Travel Consulting Services;Issued;2024-12-23T06:00:00-08:00;2025-12-31;Consulting and Management Services;;;;;;Vancouver;BC;CA;;Marpole;1.0;265.0;2025-03-02T00:09:35-08:00;;
25;4647457;25-139734;00;OHS Global Risk Solutions Ltd;;Issued;2024-12-16T14:41:15-08:00;2025-12-31;Consulting and Management Services;;103;Unit;511;W 14TH AV;Vancouver;BC;CA;V5Z 1P5;Fairview;3.0;265.0;2025-03-02T00:09:35-08:00;"{""coordinates"": [-123.115384085776, 49.2588952010618], ""type"": ""Point""}";49.2588952010618, -123.115384085776
25;4647476;25-139753;00;Engage Delaney Inc;;Issued;2024-12-16T12:50:45-08:00;2025-12-31;Consulting and Management Services;;700;Unit;838;W HASTINGS ST;Vancouver;BC;CA;V6C 1C8;Downtown;8.0;265.0;2025-03-02T00:09:35-08:00;"{""coordinates"": [-123.115954794154, 49.2861401861865], ""type"": ""Point""}";49.2861401861865, -123.115954794154
25;4647480;25-139757;00;Cornerstone International Group Advisors Limited;Cornerstone International Group;Issued;2024-12-12T22:17:38-08:00;2025-12-31;Consulting and Management Services;;1500;Unit;701;W GEORGIA ST;Vancouver;BC;CA;V7Y 1C6;Downtown;3.0;265.0;2025-03-02T00:09:35-08:00;"{""coordinates"": [-123.117751286267, 49.2834005265727], ""type"": ""Point""}";49.2834005265727, -123.117751286267
25;4647490;25-139767;00;(Peter Fox);;Issued;2024-12-18T09:26:35-08:00;2025-12-31;Consulting and Management Services;;;;;;Vancouver;BC;CA;;Kensington-Cedar Cottage;1.0;265.0;2025-03-02T00:09:35-08:00;;
25;4647499;25-139776;00;Suionix Ion Technology Inc;;Issued;2024-12-06T16:04:15-08:00;2025-12-31;Consulting and Management Services;;;;;;Vancouver;BC;CA;;Marpole;2.0;265.0;2025-03-02T00:09:35-08:00;;
25;4647524;25-139801;00;Geocentrix Technologies Ltd;;Issued;2024-12-24T11:22:35-08:00;2025-12-31;Consulting and Management Services;;;;;;Vancouver;BC;CA;;Kensington-Cedar Cottage;1.0;265.0;2025-03-02T00:09:35-08:00;;
25;4647547;25-139824;00;(Wenxiao Ma);COS Immigration Consulting;Issued;2024-12-30T21:32:52-08:00;2025-12-31;Consulting and Management Services;;225;Unit;314;W CORDOVA ST;Vancouver;BC;CA;V6B 1E8;Downtown;1.0;265.0;2025-03-02T00:09:35-08:00;"{""coordinates"": [-123.109527769684, 49.2834092795592], ""type"": ""Point""}";49.2834092795592, -123.109527769684
25;4647618;25-139895;00;North America Chem-Tech Ltd;;Issued;2024-12-03T18:03:33-08:00;2025-12-31;Consulting and Management Services;;;;;;Vancouver;BC;CA;;Kitsilano;1.0;265.0;2025-03-02T00:09:35-08:00;;
25;4647630;25-139907;00;Integrity Project Consulting Inc;;Issued;2024-12-04T13:31:03-08:00;2025-12-31;Consulting and Management Services;;;;;;Vancouver;BC;CA;;Dunbar-Southlands;1.0;265.0;2025-03-02T00:09:35-08:00;;
25;4647633;25-139910;00;Priopta Innovations Inc;Priopta;Issued;2024-12-12T13:03:57-08:00;2025-12-31;Consulting and Management Services;;;;;;Vancouver;BC;CA;;Downtown;2.0;265.0;2025-03-02T00:09:35-08:00;;
25;4647658;25-139935;00;Commbridge Consulting Group Inc;;Issued;2024-12-30T01:29:49-08:00;2025-12-31;Consulting and Management Services;;;;;;Vancouver;BC;CA;;Riley Park;1.0;265.0;2025-03-02T00:09:35-08:00;;
25;4647678;25-139955;00;Mark C Ainley (Mark Ainley);Sense Of Space;Issued;2024-12-31T13:34:59-08:00;2025-12-31;Consulting and Management Services;;;;;;Vancouver;BC;CA;;West End;1.0;265.0;2025-03-02T00:09:35-08:00;;
25;4647699;25-139976;00;Steer Davies Gleave North America Incorporated;Steer Davies Gleave;Issued;2024-12-17T10:39:35-08:00;2025-12-31;Consulting and Management Services;;1030;Unit;999;W HASTINGS ST;Vancouver;BC;CA;V6C 2W2;Downtown;9.0;265.0;2025-03-02T00:09:35-08:00;"{""coordinates"": [-123.116060633524, 49.2872235032218], ""type"": ""Point""}";49.2872235032218, -123.116060633524
25;4647703;25-139980;00;Scott Geophysics Ltd;;Issued;2024-12-05T13:49:38-08:00;2025-12-31;Consulting and Management Services;;;;;;Vancouver;BC;CA;;West Point Grey;2.0;265.0;2025-03-02T00:09:35-08:00;;
25;4647709;25-139986;00;Institute of Financial Consultants Inc;;Issued;2024-12-09T11:34:02-08:00;2025-12-31;Consulting and Management Services;;202;Unit;938;HOWE ST;Vancouver;BC;CA;V6Z 1N9;Downtown;2.0;265.0;2025-03-02T00:09:35-08:00;"{""coordinates"": [-123.122835857511, 49.2803098063228], ""type"": ""Point""}";49.2803098063228, -123.122835857511
25;4647730;25-140007;00;JSA Immigration Consulting Ltd;;Inactive;2024-12-27T12:12:15-08:00;2025-12-31;Consulting and Management Services;;1500;Unit;701;W GEORGIA ST;Vancouver;BC;CA;V7Y 1C6;Downtown;3.0;265.0;2025-03-02T00:09:35-08:00;"{""coordinates"": [-123.117751286267, 49.2834005265727], ""type"": ""Point""}";49.2834005265727, -123.117751286267
25;4647738;25-140015;00;Tandem Innovation Group Inc;;Issued;2024-12-20T18:22:42-08:00;2025-12-31;Consulting and Management Services;;;;1767;MCSPADDEN AV;Vancouver;BC;CA;V5N 1L3;Grandview-Woodland;1.0;265.0;2025-03-02T00:09:35-08:00;"{""coordinates"": [-123.0681350765, 49.2666051959019], ""type"": ""Point""}";49.2666051959019, -123.0681350765
25;4647750;25-140027;00;Spur Communication Inc;;Inactive;2024-12-19T09:54:19-08:00;2025-12-31;Consulting and Management Services;;;;;;Vancouver;BC;CA;;Kitsilano;6.0;265.0;2025-03-02T00:09:35-08:00;;
25;4647761;25-140038;00;Boyce Food Safety Consulting Ltd;;Issued;2024-12-04T10:32:51-08:00;2025-12-31;Consulting and Management Services;;1st Floor;Unit;555;BURRARD ST;Vancouver;BC;CA;V7X 1M8;Downtown;1.0;265.0;2025-03-02T00:09:35-08:00;"{""coordinates"": [-123.118959746657, 49.2865570713147], ""type"": ""Point""}";49.2865570713147, -123.118959746657
25;4647777;25-140054;00;(Maria Kilina);To Do Consulting;Inactive;2024-12-13T23:32:20-08:00;2025-12-31;Consulting and Management Services;;;;;;Vancouver;BC;CA;;Downtown;1.0;265.0;2025-03-02T00:09:35-08:00;;
25;4647778;25-140055;00;Affinity Staffing Inc;Affinity Group;Issued;2024-12-13T10:32:36-08:00;2025-12-31;Consulting and Management Services;;275;Unit;2985;VIRTUAL WAY;Vancouver;BC;CA;V5M 4X7;Renfrew-Collingwood;40.0;265.0;2025-03-02T00:09:35-08:00;"{""coordinates"": [-123.042424835637, 49.2606031412959], ""type"": ""Point""}";49.2606031412959, -123.042424835637
25;4647794;25-140071;00;Scope 7 Technologies Inc;;Issued;2024-12-23T08:26:35-08:00;2025-12-31;Consulting and Management Services;;250;Unit;997;SEYMOUR ST;Vancouver;BC;CA;V6B 3M1;Downtown;0.0;265.0;2025-03-02T00:09:35-08:00;"{""coordinates"": [-123.122056018925, 49.2789639460617], ""type"": ""Point""}";49.2789639460617, -123.122056018925
25;4647798;25-140075;00;(Elina Gershman);BEYOND BRAND;Issued;2024-12-28T13:48:32-08:00;2025-12-31;Consulting and Management Services;;;;;;Vancouver;BC;CA;;West End;1.0;265.0;2025-03-02T00:09:35-08:00;;
25;4647841;25-140118;00;(Rasie Bamigbade);RB Jumpstart Coaching;Issued;2024-12-10T12:28:52-08:00;2025-12-31;Consulting and Management Services;;;;;;Vancouver;BC;CA;;;1.0;265.0;2025-03-02T00:09:35-08:00;;
25;4647842;25-140119;00;1689986 Alberta Ltd;Navigator Limited;Issued;2024-12-04T06:03:59-08:00;2025-12-31;Consulting and Management Services;;;;;;Vancouver;BC;CA;;Kitsilano;0.0;265.0;2025-03-02T00:09:35-08:00;;
25;4647843;25-140120;00;(Brandon Thiessen);Brandon Thiessen Coffee Consultancy;Issued;2024-12-21T11:51:23-08:00;2025-12-31;Consulting and Management Services;;300;Unit;225;W 8TH AV;Vancouver;BC;CA;V5Y 1N3;Mount Pleasant;1.0;265.0;2025-03-02T00:09:35-08:00;"{""coordinates"": [-123.11016797126, 49.2641103178004], ""type"": ""Point""}";49.2641103178004, -123.11016797126
25;4647849;25-140126;00;Global Enlightening Enterprise Inc;;Issued;2024-12-15T13:57:40-08:00;2025-12-31;Consulting and Management Services;;;;;;Vancouver;BC;CA;;West End;2.0;265.0;2025-03-02T00:09:35-08:00;;
25;4647875;25-140152;00;Jose A Penafiel (Jose  Penafiel);Toclla Consulting;Issued;2024-12-29T12:07:56-08:00;2025-12-31;Consulting and Management Services;;;;;;Vancouver;BC;CA;;Riley Park;2.0;265.0;2025-03-02T00:09:35-08:00;;
25;4647886;25-140163;00;Clicks & Copy Marketing Ltd;;Issued;2024-12-14T18:17:41-08:00;2025-12-31;Consulting and Management Services;;;;;;Vancouver;BC;CA;;Downtown;1.0;265.0;2025-03-02T00:09:35-08:00;;
25;4647899;25-140176;00;Setlans Immigration Services Inc;;Issued;2024-12-19T00:08:04-08:00;2025-12-31;Consulting and Management Services;;720;Unit;999;W BROADWAY;Vancouver;BC;CA;V5Z 1K5;Fairview;1.0;265.0;2025-03-02T00:09:35-08:00;"{""coordinates"": [-123.126104236733, 49.2638663729166], ""type"": ""Point""}";49.2638663729166, -123.126104236733
25;4647901;25-140178;00;Wayne Company of Immigration Consulting Corp;The Company of Immigration Consulting;Issued;2024-12-13T14:59:56-08:00;2025-12-31;Consulting and Management Services;;405;Unit;609;W HASTINGS ST;Vancouver;BC;CA;V6B 4W4;Downtown;3.0;265.0;2025-03-02T00:09:35-08:00;"{""coordinates"": [-123.113027499418, 49.2851507931574], ""type"": ""Point""}";49.2851507931574, -123.113027499418
25;4647927;25-140204;00;Phi Hung Hoang (Phi Hoang);Joe Hoang Career Consulting;Issued;2024-12-29T11:41:31-08:00;2025-12-31;Consulting and Management Services;;;;;;Vancouver;BC;CA;;Killarney;1.0;265.0;2025-03-02T00:09:35-08:00;;
25;4647933;25-140210;00;Jaime C Bravo (Jaime Bravo);JCB Global Canadian Immigration Consultancy;Issued;2024-12-02T02:45:55-08:00;2025-12-31;Consulting and Management Services;;300;Unit;5118;JOYCE ST;Vancouver;BC;CA;V5R 4H1;Renfrew-Collingwood;1.0;265.0;2025-03-02T00:09:35-08:00;"{""coordinates"": [-123.0318022093, 49.2377982213229], ""type"": ""Point""}";49.2377982213229, -123.0318022093
25;4647942;25-140219;00;Bahrami Immigration Inc;;Issued;2024-12-19T11:42:16-08:00;2025-12-31;Consulting and Management Services;;495;Unit;1140;W PENDER ST;Vancouver;BC;CA;V6E 4G1;Downtown;3.0;265.0;2025-03-02T00:09:35-08:00;"{""coordinates"": [-123.122081850721, 49.2876129603256], ""type"": ""Point""}";49.2876129603256, -123.122081850721
25;4647948;25-140225;00;RG Portfolio Services Inc;;Issued;2024-12-06T15:11:02-08:00;2025-12-31;Consulting and Management Services;;110;Unit;1650;W 1ST AV;Vancouver;BC;CA;V6J 1G1;Fairview;0.0;265.0;2025-03-02T00:09:35-08:00;"{""coordinates"": [-123.142071281032, 49.2703422529342], ""type"": ""Point""}";49.2703422529342, -123.142071281032
25;4647967;25-140244;00;ReLoad Sustainable Design Inc;;Issued;2024-12-20T14:02:52-08:00;2025-12-31;Consulting and Management Services;;423;Unit;119;W PENDER ST;Vancouver;BC;CA;V6B 1S5;Downtown;3.0;265.0;2025-03-02T00:09:35-08:00;"{""coordinates"": [-123.107975239091, 49.281430002815], ""type"": ""Point""}";49.281430002815, -123.107975239091
25;4647968;25-140245;00;1322668 BC Ltd;;Issued;2024-12-28T13:36:08-08:00;2025-12-31;Consulting and Management Services;;;;;;Vancouver;BC;CA;;West End;1.0;265.0;2025-03-02T00:09:35-08:00;;
25;4647995;25-140272;00;Eagle High Consulting Ltd;WIGI;Issued;2024-12-10T12:03:57-08:00;2025-12-31;Consulting and Management Services;;;;22;E 5TH AV;Vancouver;BC;CA;V5T 1G8;Mount Pleasant;3.0;265.0;2025-03-02T00:09:35-08:00;"{""coordinates"": [-123.104305356489, 49.2662134404944], ""type"": ""Point""}";49.2662134404944, -123.104305356489
25;4647999;25-140276;00;Elissa Cristall Galleries Ltd;;Issued;2024-12-20T10:05:52-08:00;2025-12-31;Consulting and Management Services;;;;;;Vancouver;BC;CA;;Kitsilano;1.0;265.0;2025-03-02T00:09:35-08:00;;
25;4648005;25-140282;00;CWR Immigration Consulting Ltd;;Inactive;2024-12-26T16:47:42-08:00;2025-12-31;Consulting and Management Services;;600;Unit;890;W PENDER ST;Vancouver;BC;CA;V6C 1J9;Downtown;2.0;265.0;2025-03-02T00:09:35-08:00;"{""coordinates"": [-123.116807527791, 49.2855464375985], ""type"": ""Point""}";49.2855464375985, -123.116807527791
25;4648018;25-140295;00;Britannia Immigration Services Incorporated;Britannia Immigration Services;Issued;2024-12-19T23:55:34-08:00;2025-12-31;Consulting and Management Services;;;;;;Vancouver;BC;CA;;Oakridge;1.0;265.0;2025-03-02T00:09:35-08:00;;
25;4648020;25-140297;00;Health Bridge HR Inc;;Issued;2024-12-16T15:28:09-08:00;2025-12-31;Consulting and Management Services;;300;Unit;1275;W 6TH AV;Vancouver;BC;CA;V6H 1A6;Fairview;4.0;265.0;2025-03-02T00:09:35-08:00;"{""coordinates"": [-123.133064428914, 49.2663820185595], ""type"": ""Point""}";49.2663820185595, -123.133064428914
25;4648022;25-140299;00;Triarius Project Management Inc;Central Nervous Systems;Issued;2024-12-12T13:02:36-08:00;2025-12-31;Consulting and Management Services;;950;Unit;1140;W PENDER ST;Vancouver;BC;CA;V6E 4G1;Downtown;10.0;265.0;2025-03-02T00:09:35-08:00;"{""coordinates"": [-123.122081850721, 49.2876129603256], ""type"": ""Point""}";49.2876129603256, -123.122081850721
25;4648029;25-140306;00;Jeff Allester Engineering Ltd;;Issued;2024-12-19T10:04:47-08:00;2025-12-31;Consulting and Management Services;;303;Unit;1930;PANDORA ST;Vancouver;BC;CA;V5L 0C7;;15.0;265.0;2025-03-02T00:09:35-08:00;"{""coordinates"": [-123.06455066417, 49.2825792256231], ""type"": ""Point""}";49.2825792256231, -123.06455066417
25;4648037;25-140314;00;(Mitra Royan);Royan Immigration Consulting;Issued;2024-12-22T19:17:39-08:00;2025-12-31;Consulting and Management Services;;;;;;Vancouver;BC;CA;;West End;1.0;265.0;2025-03-02T00:09:35-08:00;;
25;4648047;25-140324;00;Kambo Energy Group Inc;Kambo Electric Community Power and Empower Me;Issued;2024-12-05T09:44:57-08:00;2025-12-31;Consulting and Management Services;;131;Unit;409;GRANVILLE ST;Vancouver;BC;CA;V6C 1T2;Downtown;30.0;265.0;2025-03-02T00:09:35-08:00;"{""coordinates"": [-123.114569797322, 49.2853593925229], ""type"": ""Point""}";49.2853593925229, -123.114569797322
25;4648055;25-140332;00;CSY Immigration Consulting Inc;;Issued;2024-12-25T22:55:52-08:00;2025-12-31;Consulting and Management Services;;706;Unit;602;W HASTINGS ST;Vancouver;BC;CA;V6B 1P2;Downtown;1.0;265.0;2025-03-02T00:09:35-08:00;"{""coordinates"": [-123.113430920192, 49.284625628455], ""type"": ""Point""}";49.284625628455, -123.113430920192
25;4648072;25-140349;00;Braeside Consulting Services Ltd;;Issued;2024-12-16T22:04:05-08:00;2025-12-31;Consulting and Management Services;;;;;;Vancouver;BC;CA;;West End;2.0;265.0;2025-03-02T00:09:35-08:00;;
25;4648077;25-140354;00;T42 Ventures Inc;;Issued;2024-12-31T09:42:10-08:00;2025-12-31;Consulting and Management Services;;;;;;Vancouver;BC;CA;;Kitsilano;0.0;265.0;2025-03-02T00:09:35-08:00;;
25;4648100;25-140377;00;PETER DENT PROFESSIONAL CORPORATION;;Issued;2024-12-09T15:56:32-08:00;2025-12-31;Consulting and Management Services;;2300;Unit;410;W GEORGIA ST;Vancouver;BC;CA;V6B 0S7;Downtown;1400.0;265.0;2025-03-02T00:09:35-08:00;"{""coordinates"": [-123.115881581318, 49.2805115734956], ""type"": ""Point""}";49.2805115734956, -123.115881581318
25;4648105;25-140382;00;West Coast Legal Coaching Inc;;Issued;2024-12-19T13:26:14-08:00;2025-12-31;Consulting and Management Services;;;;;;Vancouver;BC;CA;;West End;0.0;265.0;2025-03-02T00:09:35-08:00;;
25;4648109;25-140386;00;Beth A V Locke (Beth  Locke);The Fundraiser Coach;Issued;2024-12-15T13:46:02-08:00;2025-12-31;Consulting and Management Services;;;;;;Vancouver;BC;CA;;Downtown;1.0;265.0;2025-03-02T00:09:35-08:00;;
25;4648116;25-140393;00;1011990 BC Ltd;;Issued;2024-12-13T14:56:46-08:00;2025-12-31;Consulting and Management Services;;;;;;Vancouver;BC;CA;;Downtown;1.0;265.0;2025-03-02T00:09:35-08:00;;
25;4648122;25-140399;00;Caputy Consulting Corporation;;Issued;2024-12-01T13:23:45-08:00;2025-12-31;Consulting and Management Services;;;;;;Vancouver;BC;CA;;Out of Town;1.0;265.0;2025-03-02T00:09:35-08:00;;
25;4648146;25-140423;00;(Yumi Takeshita);VVVY Enterprises;Issued;2024-12-27T19:13:46-08:00;2025-12-31;Consulting and Management Services;;;;;;Vancouver;BC;CA;;Mount Pleasant;0.0;265.0;2025-03-02T00:09:35-08:00;;
25;4648181;25-140458;00;IBIS Immigration Services Ltd;;Issued;2024-12-30T11:03:05-08:00;2025-12-31;Consulting and Management Services;;;;;;Vancouver;BC;CA;;Hastings-Sunrise;1.0;265.0;2025-03-02T00:09:35-08:00;;
25;4648206;25-140483;00;(Zahara Ajani);;Issued;2024-12-26T17:17:52-08:00;2025-12-31;Consulting and Management Services;;2578;Unit;550;BURRARD ST;Vancouver;BC;CA;V6C 2B5;Downtown;1.0;265.0;2025-03-02T00:09:35-08:00;"{""coordinates"": [-123.118286911277, 49.2857182786615], ""type"": ""Point""}";49.2857182786615, -123.118286911277
25;4648209;25-140486;00;Smart & Biggar LP / Smart & Biggar SEC;Smart & Biggar;Issued;2024-12-18T15:11:18-08:00;2025-12-31;Consulting and Management Services;;1900;Unit;550;BURRARD ST;Vancouver;BC;CA;V6C 2B5;Downtown;44.0;265.0;2025-03-02T00:09:35-08:00;"{""coordinates"": [-123.118286911277, 49.2857182786615], ""type"": ""Point""}";49.2857182786615, -123.118286911277
25;4648210;25-140487;00;(Nikki Snider);Nikki Snider VFX;Issued;2024-12-30T18:26:33-08:00;2025-12-31;Consulting and Management Services;;;;;;Vancouver;BC;CA;;Fairview;1.0;265.0;2025-03-02T00:09:35-08:00;;
25;4648212;25-140489;00;Enmotion Immigration Services Ltd;;Issued;2024-12-09T23:45:59-08:00;2025-12-31;Consulting and Management Services;;;;;;Vancouver;BC;CA;;Mount Pleasant;1.0;265.0;2025-03-02T00:09:35-08:00;;
25;4648219;25-140496;00;Century Immigration & Recruiters Ltd;;Issued;2024-12-09T13:29:34-08:00;2025-12-31;Consulting and Management Services;;208;Unit;515;W PENDER ST;Vancouver;BC;CA;V6B 1V5;Downtown;3.0;265.0;2025-03-02T00:09:35-08:00;"{""coordinates"": [-123.113123090414, 49.2838690672845], ""type"": ""Point""}";49.2838690672845, -123.113123090414
25;4648238;25-140515;00;D'OR Art Ltd;;Issued;2024-12-30T17:06:40-08:00;2025-12-31;Consulting and Management Services;;;;;;Vancouver;BC;CA;;Kerrisdale;1.0;265.0;2025-03-02T00:09:35-08:00;;
25;4648245;25-140522;00;(Jennifer Siddon);Siddon Strategic Communications;Issued;2024-12-05T16:36:03-08:00;2025-12-31;Consulting and Management Services;;;;;;Vancouver;BC;CA;;Dunbar-Southlands;1.0;265.0;2025-03-02T00:09:35-08:00;;
25;4648262;25-140539;00;ROYAL CANADA CONSULTING INC;;Inactive;2024-12-20T18:59:18-08:00;2025-12-31;Consulting and Management Services;;;;;;Vancouver;BC;;;Downtown;5.0;265.0;2025-03-02T00:09:35-08:00;;
25;4648263;25-140540;00;SKY GROUP MANAGEMENT INC.;Sky Group Management;Issued;2024-12-02T11:22:28-08:00;2025-12-31;Consulting and Management Services;;;;;;Vancouver;BC;;;Kerrisdale;1.0;265.0;2025-03-02T00:09:35-08:00;;
25;4648276;25-140553;00;(Vladimir Zvyagintsev);RFCHECK;Issued;2024-12-18T14:03:32-08:00;2025-12-31;Consulting and Management Services;;;;;;Vancouver;BC;;;Out of Town;1.0;265.0;2025-03-02T00:09:35-08:00;;
25;4648285;25-140562;00;(Jonn Wu);Milex Technologies;Issued;2024-12-01T14:51:58-08:00;2025-12-31;Consulting and Management Services;;;;;;Vancouver;BC;;;Kerrisdale;1.0;265.0;2025-03-02T00:09:35-08:00;;
25;4648288;25-140565;00;MEWAR INFOTECH LIMITED;;Issued;2024-12-30T09:19:09-08:00;2025-12-31;Consulting and Management Services;;300;Unit;1090;HOMER ST;Vancouver;BC;CA;V6B 2W9;Downtown;5.0;265.0;2025-03-02T00:09:35-08:00;"{""coordinates"": [-123.121150522564, 49.2762718935976], ""type"": ""Point""}";49.2762718935976, -123.121150522564
25;4648334;25-140611;00;STONECASTLE SOLUTIONS LTD.;Stonecastle;Issued;2024-12-02T19:24:56-08:00;2025-12-31;Consulting and Management Services;;;;;;Vancouver;BC;;;Fairview;2.0;265.0;2025-03-02T00:09:35-08:00;;
25;4686022;25-165011;00;INTER-CULTURAL PUBLISHING LTD.;Vinoscenti Vineyards;Issued;2024-12-18T16:29:10-08:00;2025-12-31;Consulting and Management Services;;;;;;Vancouver;BC;;;Downtown;1.0;295.0;2025-03-02T00:09:36-08:00;;
25;4686025;25-165014;00;SIGMASPAN INC.;;Issued;2024-12-31T18:00:48-08:00;2025-12-31;Consulting and Management Services;;250;Unit;997;SEYMOUR ST;Vancouver;BC;;V6B 3M1;Downtown;1.0;265.0;2025-03-02T00:09:36-08:00;"{""coordinates"": [-123.122056018925, 49.2789639460617], ""type"": ""Point""}";49.2789639460617, -123.122056018925
25;4686028;25-165017;00;1513684 B.C. LTD.;;Issued;2024-12-30T09:17:51-08:00;2025-12-31;Consulting and Management Services;;;;;;Vancouver;BC;;;Kitsilano;1.0;286.0;2025-03-02T00:09:36-08:00;;
25;4686145;25-310673;00;Align Production Health and Strategic Consulting Inc;;Issued;2024-12-18T13:10:42-08:00;2025-12-31;Consulting and Management Services;;;;;;Vancouver;BC;CA;;Hastings-Sunrise;2.0;323.0;2025-03-02T00:09:36-08:00;;
25;4686757;25-165545;00;(Brian Madigan);Coal Harbour Queer Coaching;Issued;2024-12-21T08:44:28-08:00;2025-12-31;Consulting and Management Services;;;;;;Vancouver;BC;;;Downtown;1.0;265.0;2025-03-02T00:09:36-08:00;;
25;4678806;25-159993;00;(James Tod);JTA Development Consultants;Issued;2024-12-05T14:32:46-08:00;2025-12-31;Consulting and Management Services;;1206;Unit;1166;ALBERNI ST;Vancouver;BC;CA;V6E 3Z3;West End;7.0;265.0;2025-03-02T00:09:36-08:00;"{""coordinates"": [-123.125682236504, 49.2861554000034], ""type"": ""Point""}";49.2861554000034, -123.125682236504
25;4678808;25-159995;00;Meira Consulting Inc;;Issued;2024-12-10T11:34:30-08:00;2025-12-31;Consulting and Management Services;;300;Unit;1008;HOMER ST;Vancouver;BC;CA;V6B 2X1;Downtown;13.0;265.0;2025-03-02T00:09:36-08:00;"{""coordinates"": [-123.12005515675, 49.2770380864582], ""type"": ""Point""}";49.2770380864582, -123.12005515675
25;4679419;25-138975;01;J Marshall & Company Ltd;;Issued;2024-12-05T10:54:11-08:00;2025-12-31;Consulting and Management Services;;;;;;Vancouver;BC;CA;;West Point Grey;1.0;32.0;2025-03-02T00:09:36-08:00;;
25;4646680;25-138957;00;AIS Advanced Information Systems Ltd;;Issued;2024-12-09T09:59:16-08:00;2025-12-31;Consulting and Management Services;;;;;;Vancouver;BC;CA;;Marpole;1.0;265.0;2025-03-02T00:09:35-08:00;;
25;4646689;25-138966;00;AHBL Management Limited Partnership;;Issued;2024-12-20T15:10:27-08:00;2025-12-31;Consulting and Management Services;;2700;Suite;700;W Georgia;Vancouver;BC;CA;V7Y1B8;Downtown;200.0;265.0;2025-03-02T00:09:35-08:00;;
25;4646692;25-138969;00;Carson Investment Consultant;;Issued;2024-12-17T11:25:05-08:00;2025-12-31;Consulting and Management Services;;;;;;Vancouver;BC;CA;;Arbutus-Ridge;1.0;265.0;2025-03-02T00:09:35-08:00;;
25;4646694;25-138971;00;(Karen Hallam);Hallamedia;Issued;2024-12-20T11:53:51-08:00;2025-12-31;Consulting and Management Services;;;;;;Vancouver;BC;CA;;Riley Park;0.0;265.0;2025-03-02T00:09:35-08:00;;
25;4672855;25-140445;01;Habanero Consulting Inc;;Issued;2024-12-03T09:26:03-08:00;2025-12-31;Consulting and Management Services;;2070;Unit;555;W HASTINGS ST;Vancouver;BC;CA;V6B 4N6;Downtown;10.0;297.0;2025-03-02T00:09:36-08:00;"{""coordinates"": [-123.111888756655, 49.2846829470474], ""type"": ""Point""}";49.2846829470474, -123.111888756655
25;4674238;25-306029;00;J O Thomas & Associates Ltd;;Issued;2024-12-02T12:24:48-08:00;2025-12-31;Consulting and Management Services;;;;1370;KOOTENAY ST;Vancouver;BC;CA;V5K 4R1;Hastings-Sunrise;13.0;13.0;2025-03-02T00:09:36-08:00;"{""coordinates"": [-123.026908780356, 49.272439686154], ""type"": ""Point""}";49.272439686154, -123.026908780356
25;4674309;25-140698;01;Fairview Strategy Inc;;Issued;2024-12-02T15:15:12-08:00;2025-12-31;Consulting and Management Services;;410;Unit;355;BURRARD ST;Vancouver;BC;CA;V6C 2G8;Downtown;4.0;32.0;2025-03-02T00:09:36-08:00;"{""coordinates"": [-123.11723844762, 49.2875182283394], ""type"": ""Point""}";49.2875182283394, -123.11723844762
25;4686021;25-165010;00;(Sarah Thornton);Palladis Admissions Consulting;Issued;2024-12-18T14:39:55-08:00;2025-12-31;Consulting and Management Services;;;;;;Vancouver;BC;CA;;UBC;1.0;265.0;2025-03-02T00:09:36-08:00;;
25;4686024;25-165013;00;Yasuhiko Ogushi & Yuto Takagi;Bayside Energy Insights LLP;Issued;2024-12-18T20:49:19-08:00;2025-12-31;Consulting and Management Services;;112;Unit;970;BURRARD ST;Vancouver;BC;;V6Z 2R4;Downtown;1.0;265.0;2025-03-02T00:09:36-08:00;"{""coordinates"": [-123.125113318281, 49.2810836198967], ""type"": ""Point""}";49.2810836198967, -123.125113318281
25;4686026;25-165015;00;NINJA TRAINING INC.;Aitken Leadership Group;Issued;2024-12-24T16:22:54-08:00;2025-12-31;Consulting and Management Services;;;;;;Vancouver;BC;;;Fairview;2.0;265.0;2025-03-02T00:09:36-08:00;;
25;4686030;25-165019;00;RPMGLOBAL ADVISORY SERVICES CANADA LTD.;;Issued;2024-12-20T17:08:54-08:00;2025-12-31;Consulting and Management Services;;1085;Unit;555;BURRARD ST;Vancouver;BC;;V7X 1M7;Downtown;5.0;265.0;2025-03-02T00:09:36-08:00;"{""coordinates"": [-123.118959746657, 49.2865570713147], ""type"": ""Point""}";49.2865570713147, -123.118959746657
25;4686032;25-165021;00;1470083 B.C. LTD.;;Issued;2024-12-26T22:46:50-08:00;2025-12-31;Consulting and Management Services;;600;Unit;777;HORNBY ST;Vancouver;BC;;V6Z 1S4;Downtown;0.0;286.0;2025-03-02T00:09:36-08:00;"{""coordinates"": [-123.121421490049, 49.2832466257592], ""type"": ""Point""}";49.2832466257592, -123.121421490049
25;4686621;25-310953;00;UBC Investment Management Inc;;Issued;2024-12-20T14:13:17-08:00;2025-12-31;Consulting and Management Services;;1188;Unit;1055;W HASTINGS ST;Vancouver;BC;CA;V6E 2E9;Downtown;13.0;265.0;2025-03-02T00:09:36-08:00;"{""coordinates"": [-123.118192793095, 49.2877342016388], ""type"": ""Point""}";49.2877342016388, -123.118192793095
25;4677815;25-139701;01;Boast Capital Ltd;Boast AI;Issued;2024-12-03T21:11:04-08:00;2025-12-31;Consulting and Management Services;;200;Unit;555;BURRARD ST;Vancouver;BC;CA;V7X 1M8;Downtown;15.0;297.0;2025-03-02T00:09:36-08:00;"{""coordinates"": [-123.118959746657, 49.2865570713147], ""type"": ""Point""}";49.2865570713147, -123.118959746657
25;4678801;25-159988;00;Aon Solutions Canada Inc;;Issued;2024-12-05T13:56:52-08:00;2025-12-31;Consulting and Management Services;;1700;Unit;777;DUNSMUIR ST;Vancouver;BC;CA;V7Y 1K4;Downtown;96.0;265.0;2025-03-02T00:09:36-08:00;"{""coordinates"": [-123.116383207944, 49.2843253122431], ""type"": ""Point""}";49.2843253122431, -123.116383207944
25;4678805;25-159992;00;On Q Travel Management Inc;On Q Travel Management;Issued;2024-12-06T09:13:23-08:00;2025-12-31;Consulting and Management Services;;590;Unit;1199;W PENDER ST;Vancouver;BC;CA;V6E 2R1;Downtown;1.0;265.0;2025-03-02T00:09:36-08:00;"{""coordinates"": [-123.122585601107, 49.2883558777116], ""type"": ""Point""}";49.2883558777116, -123.122585601107
25;4678807;25-159994;00;Hive Business Solutions Inc;;Issued;2024-12-10T14:41:22-08:00;2025-12-31;Consulting and Management Services;;;;;;Vancouver;BC;CA;;Hastings-Sunrise;2.0;295.0;2025-03-02T00:09:36-08:00;;
25;4678809;25-159996;00;Public Grounds Landscape Architecture Inc;;Issued;2024-12-05T14:45:31-08:00;2025-12-31;Consulting and Management Services;;;;;;Vancouver;BC;CA;;Kitsilano;1.0;265.0;2025-03-02T00:09:36-08:00;;
25;4678813;25-160000;00;MAXIMIZE WEALTH HOLDING LTD.;;Issued;2024-12-08T20:44:35-08:00;2025-12-31;Consulting and Management Services;;;;;;Vancouver;BC;;;Kerrisdale;1.0;265.0;2025-03-02T00:09:36-08:00;;
25;4678820;25-160007;00;0962895 B.C. LTD.;Carlos Jiang & Associates Co.;Issued;2024-12-06T18:42:36-08:00;2025-12-31;Consulting and Management Services;;400;Unit;601;W BROADWAY;Vancouver;BC;;V5Z 4C2;Fairview;2.0;265.0;2025-03-02T00:09:36-08:00;"{""coordinates"": [-123.118596122757, 49.2635657969344], ""type"": ""Point""}";49.2635657969344, -123.118596122757
25;4678821;25-160008;00;VALUE MAP INC.;;Issued;2024-12-31T14:05:36-08:00;2025-12-31;Consulting and Management Services;;;;;;Vancouver;BC;;;West End;1.0;265.0;2025-03-02T00:09:36-08:00;;
25;4678824;25-160011;00;SOMMERVILLE COMMUNITY RELATIONS LTD.;;Issued;2024-12-05T17:17:23-08:00;2025-12-31;Consulting and Management Services;;1206;Unit;1166;ALBERNI ST;Vancouver;BC;;V6E 3Z3;West End;5.0;265.0;2025-03-02T00:09:36-08:00;"{""coordinates"": [-123.125682236504, 49.2861554000034], ""type"": ""Point""}";49.2861554000034, -123.125682236504
25;4678825;25-160012;00;BLAM CONSULTING INC.;;Issued;2024-12-06T11:52:13-08:00;2025-12-31;Consulting and Management Services;;;;;;Vancouver;BC;;;Downtown;1.0;265.0;2025-03-02T00:09:36-08:00;;
25;4678827;25-160014;00;THE OFFSHORE EDUCATION AND SETTLEMENT SERVICES INC.;;Issued;2024-12-23T20:18:03-08:00;2025-12-31;Consulting and Management Services;;;;;;Vancouver;BC;;;West End;1.0;265.0;2025-03-02T00:09:36-08:00;;
